company_id,company_name,data_source,description,website,company_type,followers,rolodex_company_id,interakt_lead_id,bigin_id,phone,project_types,address_street,address_city,address_state,address_postal_code,address_country,headquarter_city,headquarter_state,headquarter_country,workspace_id,linkedin_description,logo_url,facebook_slug,linkedin_slug,x_slug,instagram_slug,country_code,phone_number,arr_estimate,number_of_employees,colourcoats_bigin_id,metalia_bigin_id,rolodex_id
64e929c4-1a0c-4e00-a719-5f81064d22a3,315 Work Avenue,ColourcoatsBigin,,,,,f335a25e-1bbe-49cb-b985-d24dcdfcc60f,,1005878000000436350,,,,,,,,,,,,,,,,,,,,,,1005878000000436350,,
0a319442-ddba-4f7b-98c8-87856348abdd,360 Feet Design Studio,ColourcoatsBigin,,https://www.360feetdesignstudio.com/,,,,,1005878000000436351,,,,,,,,,,,,,,,,,,,,,,1005878000000436351,,
fe7b57f8-3c1a-4c3e-b6cc-12c80b8cf665,3MM Concept,ColourcoatsBigin,,,,,,,1005878000000436352,,,,,,,,,,,,,,,,,,,,,,1005878000000436352,,
932fe27b-0521-43e9-b009-c9b09b8dbd1b,A&K Design Studio,ColourcoatsBigin,,,,,d445a6ac-821a-45a4-97e1-997fb3eebb95,,1005878000000436353,,,,,,,,,,,,,,,,,,,,,,1005878000000436353,,
a0760a01-69e3-4751-95b1-2114799f8d2a,A2D2,ColourcoatsBigin,,,,,97b462e7-2e67-489d-86b8-25354c44e6ee,,1005878000000436354,,,,,,,,,,,,,,,,,,,,,,1005878000000436354,,
98be5e0b-a5bc-4ff2-865b-9000bd8d4cd2,Aa Homes,ColourcoatsBigin,,,,,7def3edb-2ca1-4a4f-b99b-16ea1ad5cbbf,,1005878000000436355,,,,,,,,,,,,,,,,,,,,,,1005878000000436355,,
4f18856b-0b4b-405a-9003-dc27789154c1,Aakruti Architects - Ahmedabad,ColourcoatsBigin,,https://www.aakrutiarchitects.com/,,,,,1005878000000436356,,,,,,,,,,,,,,,,,,,,,,1005878000000436356,,
2be66680-401c-414d-94d3-8d2b193068f2,Abhijaat Architect,ColourcoatsBigin,,,,,2f1094e8-58b1-415c-808d-df6e83221813,,1005878000000436357,,,,,,,,,,,,,,,,,,,,,,1005878000000436357,,
4f00443e-54df-4f94-9bbf-ed3e83d26525,Abm Mumbai,ColourcoatsBigin,,,,,2857c05d-f1bc-4054-83ef-cf13d636f811,,1005878000000436358,,,,,,,,,,,,,,,,,,,,,,1005878000000436358,,
035dd018-461e-4ebf-88ee-14040af56414,Adid,ColourcoatsBigin,,,,,18d6d218-5bdb-48ec-beb9-8783c029a6a5,,1005878000000436359,,,,,,,,,,,,,,,,,,,,,,1005878000000436359,,
65177f2b-9a13-4f67-9494-f72e5ab21c56,Aditi Dattani Architect,ColourcoatsBigin,,,,,05d628d9-b75c-4ff1-b9c8-fb7dd4ec4e4f,,1005878000000436361,,,,,,,,,,,,,,,,,,,,,,1005878000000436361,,
db09d6d5-2b0f-47fe-b2c8-dcf8c6327a8b,Adnd Studio,ColourcoatsBigin,,,,,6cefc054-6d71-43c5-89ee-ea010d59d8a7,,1005878000000436362,,,,,,,,,,,,,,,,,,,,,,1005878000000436362,,
617f4d96-989f-4016-a2ac-7e9ba3d23f7e,Ajit Shilpi,ColourcoatsBigin,,,,,9574802d-efc7-40e7-8701-3da8fc0f656c,,1005878000000436363,,,,,,,,,,,,,,,,,,,,,,1005878000000436363,,
9f1ea8c4-772a-4b60-b04d-2bfdff428705,Akasa Designs,ColourcoatsBigin,,https://www.aakasadesigns.com/,,,,,1005878000000436364,,,,,,,,,,,,,,,,,,,,,,1005878000000436364,,
7b69c194-e294-45a9-b31d-77cbd2ad8d03,Amit Gulati,ColourcoatsBigin,,,,,4971d04f-96f6-4fb0-b4a1-1c8e5fcfd232,,1005878000000436365,,,,,,,,,,,,,,,,,,,,,,1005878000000436365,,
71123213-2599-43ea-a79d-c33679c1b482,Amit Porwal,ColourcoatsBigin,,,,,47ee8f44-294f-477c-986f-8150284f21c1,,1005878000000436366,,,,,,,,,,,,,,,,,,,,,,1005878000000436366,,
70a15981-8f28-43c1-aacd-d066ff35098f,Ampm Designs,ColourcoatsBigin,,,,,bf2e598f-2da1-498b-999f-b5dbff24133b,,1005878000000436367,,,,,,,,,,,,,,,,,,,,,,1005878000000436367,,
86b77819-1617-440f-a628-59bc0ea6c049,Amulya,ColourcoatsBigin,,,,,d0c9cce3-6184-4561-b886-2ca8ee469d04,,1005878000000436368,,,,,,,,,,,,,,,,,,,,,,1005878000000436368,,
f9a30f5c-dc25-4511-8d20-a4d5b77d3dd9,Anish Sir,ColourcoatsBigin,,,,,200d3028-8786-4bff-bf60-4684d1664d19,,1005878000000436369,,,,,,,,,,,,,,,,,,,,,,1005878000000436369,,
c03cd720-860b-488e-9720-47d0f52c3259,Anj Group,ColourcoatsBigin,,,,,c5a27b85-db17-4d38-9c66-a2e8cb2a6542,,1005878000000436370,,,,,,,,,,,,,,,,,,,,,,1005878000000436370,,
448b8bb0-7bba-4a5b-b77c-7546950ad146,Annkur Khosla Design Studio,ColourcoatsBigin,,https://www.annkurkhosla.com/,,,36539a1e-36d4-4282-ab11-2e1d521d3943,,1005878000000436371,,,,,,,,,,,,,,,,,,,,,,1005878000000436371,,
b5250a07-0f9b-49b8-82e4-a34a5404bf9a,Anup Lalwani,ColourcoatsBigin,,,,,fc1f3cec-afde-478b-9016-cc4105e2b811,,1005878000000436372,,,,,,,,,,,,,,,,,,,,,,1005878000000436372,,
3bdd0d8e-110f-489e-844c-a1d92d38d4d6,Architect Rushikesh. H (ARH),ColourcoatsBigin,,,,,8da095d0-6753-4854-87d3-48445b1317cf,,1005878000000436373,,,,,,,,,,,,,,,,,,,,,,1005878000000436373,,
e06b1e70-5837-4c42-b7e3-8075156b9d2d,Architheque By Kunal Mody,ColourcoatsBigin,,,,,,,1005878000000436374,,,,,,,,,,,,,,,,,,,,,,1005878000000436374,,
170d8d6e-3384-47c7-9112-12a1c6b3f903,Arkhitektons,ColourcoatsBigin,,,,,52f1d139-39bd-48c5-86c8-f998168e49e3,,1005878000000436375,,,,,,,,,,,,,,,,,,,,,,1005878000000436375,,
5c0e8462-c633-4aa7-9262-0e4558c3f759,Arshad,ColourcoatsBigin,,,,,31b03ba3-5b13-43f7-828d-f551e94aba06,,1005878000000436376,,,,,,,,,,,,,,,,,,,,,,1005878000000436376,,
b4870bc0-c95f-471f-be37-2d8860644b0d,Atelier Ashiesh Shah,ColourcoatsBigin,,https://atelierashieshshah.com/,,,,,1005878000000436377,,,,,,,,,,,,,,,,,,,,,,1005878000000436377,,
9e0d6bac-d279-4605-a4a2-a27d5bbef920,Atelier Design N Domain,ColourcoatsBigin,,,,,7ba4409c-7315-4d51-a84e-33fdf0db9c4e,,1005878000000436378,,,,,,,,,,,,,,,,,,,,,,1005878000000436378,,
3a11f79f-9338-452b-83a9-ab6d0d0a65e4,Atozdesigns,ColourcoatsBigin,,,,,abd43e40-4f92-4177-ad09-06100fca2235,,1005878000000436379,,,,,,,,,,,,,,,,,,,,,,1005878000000436379,,
ec6c3651-5ff6-451f-8be4-c43f5b310816,Aum Architects,ColourcoatsBigin,,,,,15d84d00-07c1-44c6-af09-5a93d1477851,,1005878000000436381,,,,,,,,,,,,,,,,,,,,,,1005878000000436381,,
765db78c-7523-4899-8527-eb460837ffff,Aver Innscape Design Studio,ColourcoatsBigin,,,,,d4b363e0-c97d-480a-a914-1a62e45f7b48,,1005878000000436382,,,,,,,,,,,,,,,,,,,,,,1005878000000436382,,
660fd2ea-0e84-480f-ab2b-6ae6e2657d18,Avn Architects,ColourcoatsBigin,,,,,9ea0a9e5-00cf-4689-95d5-b2b4ff76f35e,,1005878000000436383,,,,,,,,,,,,,,,,,,,,,,1005878000000436383,,
d79be875-b5b6-453a-a901-7fe06579c58c,Avvo Architects,ColourcoatsBigin,,,Architects,,4373b407-36e7-4959-a3f2-89719b5c9748,,1005878000000436384,,,,,,,,,,,,,,,,,,,,,,1005878000000436384,,
31eff302-fc5e-441f-982b-cb2c7597c502,Awchat & Olsen Design,ColourcoatsBigin,,,,,d1b37c3c-1ca0-483e-af61-ea09f2ead545,,1005878000000436385,,,,,,,,,,,,,,,,,,,,,,1005878000000436385,,
7a3f5d50-a541-43f2-b03c-38ee4f126c35,Azure Interiors,ColourcoatsBigin,,,,,ed0dbdb7-04ea-4042-9535-11e012d10cb8,,1005878000000436386,,,,,,,,,,,,,,,,,,,,,,1005878000000436386,,
a7a9d2b1-0c15-4598-ad7b-8b3631b4e78f,Baijul Rathod,ColourcoatsBigin,,,,,73c426ce-b3d0-41b2-a5b0-af5204830785,,1005878000000436387,,,,,,,,,,,,,,,,,,,,,,1005878000000436387,,
dff8b245-a0f6-4d09-b5e7-5a8d623e7c61,Balraj Thethi Design,ColourcoatsBigin,,,,,b35da42e-b020-4ece-a96d-4d478a178df9,,1005878000000436388,,,,,,,,,,,,,,,,,,,,,,1005878000000436388,,
5e7518b4-4041-460a-947a-802532ddde85,Bhavan Jacob,ColourcoatsBigin,,,,,b17ed8e0-e2b9-47e6-9979-a58d865da626,,1005878000000436389,,,,,,,,,,,,,,,,,,,,,,1005878000000436389,,
4ffadb25-b93b-4490-b36f-37391d34e2e5,Bhoomi Mistry Design,ColourcoatsBigin,,,,,3a38bc1c-59e6-4b1b-8e61-1081dabb598c,,1005878000000436390,,,,,,,,,,,,,,,,,,,,,,1005878000000436390,,
1f9981e1-01f4-47e8-86e0-0c9b064003f3,Bhumika Rajda Design Studio,ColourcoatsBigin,,,Interior Designers,,,,1005878000000450051,,['Residential'],,,,,,,,,,,,,,,,,,,,1005878000000450051,,
73c1f9b8-7515-4826-a8be-33bcd823bb91,Bobby Mujherjee Associates,ColourcoatsBigin,,,,,a8d58630-60b2-4a98-b6ce-8c558c0797d7,,1005878000000436391,,,,,,,,,,,,,,,,,,,,,,1005878000000436391,,
e88c3e62-b575-44b8-a741-7d2476632fea,Bombay Design Studio,ColourcoatsBigin,,,,,b815f131-b607-4650-b081-c2de773e9622,,1005878000000436392,,,,,,,,,,,,,,,,,,,,,,1005878000000436392,,
9255f4e4-fcd8-4671-b5a5-c4c8c9737474,Brio,ColourcoatsBigin,,,,,e72aa2a3-4783-428d-a789-0afa5cf67b6b,,1005878000000436393,,,,,,,,,,,,,,,,,,,,,,1005878000000436393,,
0b188a6f-f94b-423b-9180-0be4fe568069,Cadence,ColourcoatsBigin,,,,,88ecc4d6-557f-4e15-9ce3-59958d693c4f,,1005878000000436394,,,,,,,,,,,,,,,,,,,,,,1005878000000436394,,
2e1d7b20-1c3c-4934-ad13-36707932615e,Capl,ColourcoatsBigin,,,,,2b0adf2a-e564-409f-91cf-5ea2f1e53835,,1005878000000436395,,,,,,,,,,,,,,,,,,,,,,1005878000000436395,,
821b1c34-83a3-451f-8b31-b082033c6b9d,Chandak Group,ColourcoatsBigin,,,,,9b6edf8c-dbc8-4541-89fe-c4896f642f45,,1005878000000436396,,,,,,,,,,,,,,,,,,,,,,1005878000000436396,,
fb09b486-70e0-4112-8afe-e6acb3bbec89,Charu Designer,ColourcoatsBigin,,,,,f5ead869-5298-41be-aeeb-d106ef41bc7a,,1005878000000436397,,,,,,,,,,,,,,,,,,,,,,1005878000000436397,,
8f01177f-0f94-4037-bb95-23f9755cc465,Chicago Studio,ColourcoatsBigin,,,,,4d0b3c98-1842-47c3-bda2-84e00759038b,,1005878000000436398,,,,,,,,,,,,,,,,,,,,,,1005878000000436398,,
8db5d339-c6c6-4e43-95e6-2dedeb549c2c,Cityspace' 82 Architects,ColourcoatsBigin,,,,,595453fb-ebff-4fe7-b7c8-6653ff5bb676,,1005878000000436399,,,,,,,,,,,,,,,,,,,,,,1005878000000436399,,
2670e182-0f3d-4068-9724-2a0c1a36a7e3,Colabcompany,ColourcoatsBigin,,,,,d3bf40a0-485d-46bb-90d8-793773e25c52,,1005878000000436400,,,,,,,,,,,,,,,,,,,,,,1005878000000436400,,
55753de2-21f0-46aa-9fd5-ddda446f4f92,Collective Project,ColourcoatsBigin,,https://collective-project.com/,,,,,1005878000000436401,,,,,,,,,,,,,,,,,,,,,,1005878000000436401,,
5142fd59-6794-4bd2-8427-5effd45a2d25,Concept Concelio,ColourcoatsBigin,,,,,,,1005878000000436402,,,,,,,,,,,,,,,,,,,,,,1005878000000436402,,
49112653-41e9-4963-b422-6d2431850972,D Design Space - Dinesh Jangid,ColourcoatsBigin,,,,,,,1005878000000436403,,,,,,,,,,,,,,,,,,,,,,1005878000000436403,,
ec26ee54-3baf-40cd-863d-91035d76a71e,DRISHTI ARCHITECTS AND INTERIOR DESIGNERS,ColourcoatsBigin,,https://www.drishtiarchitects.com/,,,1dc513d6-334b-4bad-b76a-f146ac3c025a,,1005878000000436420,,,,,,,,,,,,,,,,,,,,,,1005878000000436420,,
c520afb6-7338-4955-a0bb-63a9efcc4c72,DWG Design,ColourcoatsBigin,,https://dwgdesign.in/,,,2f8b6af3-e071-4c0c-9ed0-1418f6a45bd0,,1005878000000436422,,,,,,,,,,,,,,,,,,,,,,1005878000000436422,,
499fbb82-c66d-4b35-aa16-310efa85597b,Deepti Khanna,ColourcoatsBigin,,,,,9a1dd45a-5c4b-4ec7-a2fb-0919f40672d3,,1005878000000436404,,,,,,,,,,,,,,,,,,,,,,1005878000000436404,,
88de5298-c686-4f48-b395-cd47f99cb6c8,Des. Drashti,ColourcoatsBigin,,,,,a3b0c8a1-7534-4905-b564-6c496a7c4777,,1005878000000436405,,,,,,,,,,,,,,,,,,,,,,1005878000000436405,,
515de6db-2640-4b7a-a566-40d78749ff0d,Des.Dhwani Vaghani,ColourcoatsBigin,,,,,54583dc4-b983-4f00-b219-56c789588577,,1005878000000436406,,,,,,,,,,,,,,,,,,,,,,1005878000000436406,,
f6022269-6dda-4885-8e99-59ed56feafc6,Design Alchemy,ColourcoatsBigin,,,,,fe8513c6-833f-439a-aadb-ab6f93a2b2dd,,1005878000000436407,,,,,,,,,,,,,,,,,,,,,,1005878000000436407,,
5f6ba04f-ee47-4f24-b4e1-a31c9e88f4bc,Design Atelier - Nikhil Agarwal,ColourcoatsBigin,,https://www.design-atelier.co.in/,,,,,1005878000000436408,,,,,,,,,,,,,,,,,,,,,,1005878000000436408,,
ef41f856-76ac-4031-bb70-07e1d1ba6f0e,Design Matters,ColourcoatsBigin,,,,,f264405d-d02f-4934-831d-4f4b08b7a325,,1005878000000436409,,,,,,,,,,,,,,,,,,,,,,1005878000000436409,,
8b2b443f-571f-4578-91ab-f1cf688e5ddc,DesignHex,ColourcoatsBigin,,https://www.designhex.in/,,,6cf8ed5b-3307-4e4f-8d2d-f58bc1ffa97d,,1005878000000436410,,,,,,,,,,,,,,,,,,,,,,1005878000000436410,,
d4a8a67a-1dca-4174-9543-02880a826d4b,Designskope,ColourcoatsBigin,,,,,fb0367f6-bc09-4380-84d2-b0b0597cda20,,1005878000000436411,,,,,,,,,,,,,,,,,,,,,,1005878000000436411,,
d541e9cf-5340-4106-9a9c-8dd865c4835e,Devang Patel Designer,ColourcoatsBigin,,,,,bcc4cb54-b7ad-4dc6-b254-5e46052e1ffa,,1005878000000436412,,,,,,,,,,,,,,,,,,,,,,1005878000000436412,,
1bcc0062-db80-439f-aff8-5082bf323590,Devotie Home,ColourcoatsBigin,,,,,a1f104cf-f8b7-491a-972a-0e774b9ae9d2,,1005878000000436413,,,,,,,,,,,,,,,,,,,,,,1005878000000436413,,
38dd9bf3-981a-4739-86fc-023a158e3ddd,Dharyaa Designs,ColourcoatsBigin,,,,,4b10943c-1c2a-4dfe-9d7b-b99cb146fa2b,,1005878000000436414,,,,,,,,,,,,,,,,,,,,,,1005878000000436414,,
29fb2948-426e-45cf-ad07-d716b0cf8f33,Dig Architects,ColourcoatsBigin,,,,,488760aa-5967-4214-912c-c2767379b6a4,,1005878000000436415,,,,,,,,,,,,,,,,,,,,,,1005878000000436415,,
ed824daf-cc55-43b5-8de5-eb7df8324a3c,Dimension Interiors,ColourcoatsBigin,,,,,4c67a566-c2a1-42ed-9cef-9bbc617292a5,,1005878000000436416,,,,,,,,,,,,,,,,,,,,,,1005878000000436416,,
d1419024-b8e8-43c5-89cb-ef2884e9aafb,Dimenssion,ColourcoatsBigin,,,,,,,1005878000000436417,,,,,,,,,,,,,,,,,,,,,,1005878000000436417,,
802d85ae-0ab1-4ac2-a0ec-805de690565f,Dipttii Khanna Designs,ColourcoatsBigin,,,,,257579fc-1f46-4f12-a4be-1e3d6673d92f,,1005878000000436418,,,,,,,,,,,,,,,,,,,,,,1005878000000436418,,
b37c1d95-7671-47c4-8bff-99e70cd077f8,Dvvar Interiors Pvt. Ltd.,ColourcoatsBigin,,,,,,,1005878000000436421,,,,,,,,,,,,,,,,,,,,,,1005878000000436421,,
2df973c9-6218-400c-be88-7f3b3b035b88,Earthy Shades Design Studio,ColourcoatsBigin,,https://www.earthyshades.com/,,,6952fe77-013e-4867-a496-4eec713c2509,,1005878000000436423,,,,,,,,,,,,,,,,,,,,,,1005878000000436423,,
312401c4-5c51-430c-bfbd-b0c26e37227e,Ease Interior Hetal Ma'Am,ColourcoatsBigin,,,,,9e0d4189-cecc-4d78-9620-91576aa939bd,,1005878000000436424,,,,,,,,,,,,,,,,,,,,,,1005878000000436424,,
0a2f19d8-1778-4586-b359-3c5493b23d1c,Edifice Consultants Pvt. Ltd.,ColourcoatsBigin,,,,,3ef8663e-2aa4-480b-856a-7892fdb0ade8,,1005878000000436425,,,,,,,,,,,,,,,,,,,,,,1005878000000436425,,
6b647d4b-6d8d-4506-bc50-cf29ce6db21e,Eesha,ColourcoatsBigin,,,,,77e9efd9-4fdb-4d77-814e-a918f6587228,,1005878000000436426,,,,,,,,,,,,,,,,,,,,,,1005878000000436426,,
ce90caf9-5c80-4b2a-b003-053e89f673a7,Eisa Associates,ColourcoatsBigin,,,,,a0ba9104-9eaa-491a-a784-986b1349a9af,,1005878000000436427,,,,,,,,,,,,,,,,,,,,,,1005878000000436427,,
e5ae237f-9357-4d5c-9257-34e6f2b55289,Ekta & Dinesh,ColourcoatsBigin,,,,,ef015c94-3f1a-4811-86a8-f99da8fbb411,,1005878000000436428,,,,,,,,,,,,,,,,,,,,,,1005878000000436428,,
42927a26-b81a-4538-81da-a4d11b503919,Ekta & Jinesh,ColourcoatsBigin,,,,,2553d7b0-cc6a-481d-8240-d8d0e9e495a7,,1005878000000436429,,,,,,,,,,,,,,,,,,,,,,1005878000000436429,,
c0f66931-a59e-416b-a1d4-430a50f95786,Eliza Bnagalore,ColourcoatsBigin,,,,,44b725ff-f58a-404d-8145-7713056574ae,,1005878000000436430,,,,,,,,,,,,,,,,,,,,,,1005878000000436430,,
16b22ebe-3ee4-4223-b880-11ee3be604f0,Elm Design,ColourcoatsBigin,,,,,0976d90b-70e9-4d8d-9f66-32a2d53ac115,,1005878000000436431,,,,,,,,,,,,,,,,,,,,,,1005878000000436431,,
428a1055-45de-41f1-8a5e-1a0af41b8c46,Esajees Atelier,ColourcoatsBigin,,,,,e5b9a401-a15e-499d-acee-b49460b47079,,1005878000000436432,,,,,,,,,,,,,,,,,,,,,,1005878000000436432,,
2c9a8a27-2dc7-48e9-9302-47a60a1f917d,FAQUIH AND ASSOCIATES,ColourcoatsBigin,,https://faa-india.com/,,,54e40f64-f57a-4e9f-a182-823427a15051,,1005878000000436435,,,,,,,,,,,,,,,,,,,,,,1005878000000436435,,
fc0f426e-97b0-4030-b303-63908d0bc5ec,FSND,ColourcoatsBigin,,,,,c644d887-68b9-44c5-ad92-a5371d312d37,,1005878000000436439,,,,,,,,,,,,,,,,,,,,,,1005878000000436439,,
d58ac321-0d96-4257-a7c3-a36103c99fbe,Fabio/Maya/Goel Woodcraft,ColourcoatsBigin,,,,,3d9b7892-ac2f-485d-9bae-96d10874387d,,1005878000000436433,,,,,,,,,,,,,,,,,,,,,,1005878000000436433,,
0acfea57-34f9-4eef-a2e7-21507eb9dff2,Fadd Design Studio,ColourcoatsBigin,,,,,b769c54c-aa7b-41e4-a941-bce74e51155d,,1005878000000436434,,,,,,,,,,,,,,,,,,,,,,1005878000000436434,,
396c7388-c5f6-4ca1-99b9-6186a6af5adc,Firoza Kavrana,ColourcoatsBigin,,,,,7a7e8c1b-2997-4dcf-8a12-ab6d3b1da2b4,,1005878000000436436,,,,,,,,,,,,,,,,,,,,,,1005878000000436436,,
a564f5d0-ed86-44b2-98e4-60ed1a8116d6,Fk Interiors & Design,ColourcoatsBigin,,,,,,,1005878000000436437,,,,,,,,,,,,,,,,,,,,,,1005878000000436437,,
fe63762a-6949-490a-9f3e-309645bb8668,Freelancer,ColourcoatsBigin,,,,,891a3900-285b-43d5-b9b9-b1ab2ce33390,,1005878000000436438,,,,,,,,,,,,,,,,,,,,,,1005878000000436438,,
d1fe68f7-e02e-4055-82f5-122562a7600f,Fusion Flair,ColourcoatsBigin,,,,,5b05860f-4bcd-4320-9017-d4b839676ee9,,1005878000000436440,,,,,,,,,,,,,,,,,,,,,,1005878000000436440,,
116504ed-48a6-4b44-9475-f1bb97ea3a6c,G A Designs,ColourcoatsBigin,,,,,23a421c1-cc25-4a55-9a26-8eaa05ba52e4,,1005878000000436441,,,,,,,,,,,,,,,,,,,,,,1005878000000436441,,
618a8eaa-7973-42a5-9797-34c723fe077e,Ga Designs,ColourcoatsBigin,,,,,f28e43ca-7140-4ebe-8612-79479e0186bc,,1005878000000436442,,,,,,,,,,,,,,,,,,,,,,1005878000000436442,,
43530361-ce47-4249-9924-c8789c113c87,Garnet Interiors,ColourcoatsBigin,,https://www.garnetid.com/home/,,,24caf579-702e-4586-916b-7631d643cc41,,1005878000000436443,,,,,,,,,,,,,,,,,,,,,,1005878000000436443,,
df26e511-817d-4abf-9c74-b38614b25352,Gauri Khan Designs,ColourcoatsBigin,,https://www.gaurikhan.in/,,,5790eda1-d58a-4f58-ae0a-a1cb25d06850,,1005878000000436444,,,,,,,,,,,,,,,,,,,,,,1005878000000436444,,
5d49fd27-718e-4a2c-92d5-d7e94020607b,Gayathri & Namith Architects,ColourcoatsBigin,,,Architects,,413858e9-0082-4e3f-8bdd-4fca298fa111,,1005878000000436445,,,,,,,,,,,,,,,,,,,,,,1005878000000436445,,
76384fe5-b8d0-4694-88f6-47cd351694a8,Gurham Design Neel,ColourcoatsBigin,,,,,aba4df84-77ab-40f5-b862-d80538b4c3a4,,1005878000000436447,,,,,,,,,,,,,,,,,,,,,,1005878000000436447,,
24b823a2-8ecb-422c-97c9-a81d2844910e,Gz Arcs,ColourcoatsBigin,,,,,9ca707d2-182c-4b46-afc3-67cbb482f31c,,1005878000000436448,,,,,,,,,,,,,,,,,,,,,,1005878000000436448,,
03a89467-1777-40b2-a9a9-d206bed3fae0,H S Design,ColourcoatsBigin,,,,,485c72c5-f99e-4f43-84ae-574d1879975b,,1005878000000436449,,,,,,,,,,,,,,,,,,,,,,1005878000000436449,,
56b289ba-c7e3-4c0f-85c7-a4d0ea5a9ef2,Hardik Bhai Architect,ColourcoatsBigin,,,,,0580cead-be92-4ac3-b34e-1310191aecdc,,1005878000000436450,,,,,,,,,,,,,,,,,,,,,,1005878000000436450,,
b4f527d0-e9da-428d-b081-490e774b8eb8,Harsh Porwal Architect,ColourcoatsBigin,,,,,df7ee045-9603-4215-b1e7-74fa8cae1e47,,1005878000000436451,,,,,,,,,,,,,,,,,,,,,,1005878000000436451,,
25000f64-1954-4f08-b454-a37d8654960d,Harshita Dhankali,ColourcoatsBigin,,,,,89ef4e20-047d-478c-9728-696525350447,,1005878000000436452,,,,,,,,,,,,,,,,,,,,,,1005878000000436452,,
179c13fb-d9e4-4f6d-a312-ee572a0f1be0,Heena Ansari,ColourcoatsBigin,,,,,040df33a-82de-427b-b263-4b791719139f,,1005878000000436453,,,,,,,,,,,,,,,,,,,,,,1005878000000436453,,
8794fe9f-8af4-44c4-9b77-2d4a83c1edfe,Hemant Vora Designer,ColourcoatsBigin,,,,,1df08d8d-d6b1-4f9f-a1d2-9f5d55dd4e4b,,1005878000000436454,,,,,,,,,,,,,,,,,,,,,,1005878000000436454,,
a527fba4-ab46-4534-9ade-7259cfcc6117,Himanshi Designer,ColourcoatsBigin,,,,,1344527d-c570-4a01-966a-9ee4677c6507,,1005878000000436455,,,,,,,,,,,,,,,,,,,,,,1005878000000436455,,
2f1b306e-36df-4293-a829-8f929aa22238,Hiral Jobalia Studio,ColourcoatsBigin,,https://hiraljobalia.com/,,,ab209637-814a-4977-8203-82b90848df5d,,1005878000000436456,,,,,,,,,,,,,,,,,,,,,,1005878000000436456,,
7ed6f26c-cf06-4385-9a19-5f22717c3896,Hiren Patel Architects,ColourcoatsBigin,,,Architects,,c319dbfa-e0c4-433d-8a72-cc2b4e1aa1e7,,1005878000000436457,,,,,,,,,,,,,,,,,,,,,,1005878000000436457,,
15f163bc-a523-4b52-9eb1-24e1f2ec1838,House Of Mistry,ColourcoatsBigin,,,,,2728edd4-7963-41f5-8bcd-49777bfd3bd2,,1005878000000436458,,,,,,,,,,,,,,,,,,,,,,1005878000000436458,,
604522b9-f58b-4636-9e84-817cf6438c7b,IPIPL (Icon Projects Inspace Pvt. Ltd.),ColourcoatsBigin,,https://ipipl.in/,,,465e8b3e-b32b-4836-b160-4deb6d0144e2,,1005878000000436465,,,,,,,,,,,,,,,,,,,,,,1005878000000436465,,
8f2139b1-051e-471d-9bc6-5dee22e454fd,Idesignyou,ColourcoatsBigin,,,,,e51e258b-2ffb-4574-9822-60fbd599a5cc,,1005878000000436459,,,,,,,,,,,,,,,,,,,,,,1005878000000436459,,
d5685a64-67c8-468a-a8a5-6c35f9df30a5,Interface By Kunal Barve,ColourcoatsBigin,,https://interfacearchitects.in/,,,,,1005878000000436460,,,,,,,,,,,,,,,,,,,,,,1005878000000436460,,
a82ad347-6e75-4535-a2b3-5d2deae32c24,Interics Design Consultants - Rajiv Shroff & Associates,ColourcoatsBigin,,,,,57686dfb-436c-4894-ba6b-613b63cbe9e3,,1005878000000436461,,,,,,,,,,,,,,,,,,,,,,1005878000000436461,,
1d6c7b8e-0608-4327-be33-4040a170fb6a,Interics Design Studio,ColourcoatsBigin,,https://interics.net/,,,,,1005878000000436462,,,,,,,,,,,,,,,,,,,,,,1005878000000436462,,
90b9df49-317f-4ab6-b187-34bd57cb98b3,Interiors By J,ColourcoatsBigin,,,,,,,1005878000000436463,,,,,,,,,,,,,,,,,,,,,,1005878000000436463,,
0c4cd099-e561-4aac-9b34-7048e2d7b254,Interscapes Design,ColourcoatsBigin,,,,,7a116a51-61c5-4f28-84a0-6be85ea8e5e0,,1005878000000436464,,,,,,,,,,,,,,,,,,,,,,1005878000000436464,,
393bdcbb-9533-4b06-89ad-d8e1f0b7bdb2,Istudio,ColourcoatsBigin,,,,,88439049-bbc3-412c-9a04-aee8e43b3196,,1005878000000436466,,,,,,,,,,,,,,,,,,,,,,1005878000000436466,,
1a6967a2-98e9-42c1-8721-c7861f7a94bc,JAD Studio,ColourcoatsBigin,,,Interior Designers,,,,1005878000000450040,9619661515,,,,,,,,,,,,,,,,,,9619661515,,,1005878000000450040,,
1ef35e35-5fa1-4c32-a1e8-f6b5dda10b32,Jkin,ColourcoatsBigin,,,,,855b6bc6-7f85-4fbe-8fd5-cdf628606679,,1005878000000436467,,,,,,,,,,,,,,,,,,,,,,1005878000000436467,,
f3c43862-3ffc-4703-9058-65065d69f973,Jtcpl Designs,ColourcoatsBigin,,,,,e35cdc0a-36f9-4d34-8a0a-e0dd5fe7d8bb,,1005878000000436468,,,,,,,,,,,,,,,,,,,,,,1005878000000436468,,
61de2c53-9759-484e-a3cd-e30a5d621ef5,Jugal Mistry Associates,ColourcoatsBigin,,,,,,,1005878000000436469,,,,,,,,,,,,,,,,,,,,,,1005878000000436469,,
05a15f68-595f-40b3-8ee2-55ecd256264e,Junto Creative,ColourcoatsBigin,,,,,ccc4e52c-b2b9-4cf1-a034-3f33d9ce0b1c,,1005878000000436470,,,,,,,,,,,,,,,,,,,,,,1005878000000436470,,
bd8b3423-c1a9-4d87-83b2-0b35ddd02119,Jw Design,ColourcoatsBigin,,,,,ac412ddd-d4fe-45dc-8fe8-3743441eec1d,,1005878000000436471,,,,,,,,,,,,,,,,,,,,,,1005878000000436471,,
1e9d8259-766d-42c4-8268-dbcb261f2f7f,Kanu Mewada & Associates,ColourcoatsBigin,,,,,07975684-4272-4888-8328-a5bd135124a3,,1005878000000436472,,,,,,,,,,,,,,,,,,,,,,1005878000000436472,,
13c0708b-29c0-4ecc-931b-981c8f5cde74,Kaviar:Collaborative,ColourcoatsBigin,,,,,71dc883e-123c-457c-919a-4a2502a9cdac,,1005878000000436473,,,,,,,,,,,,,,,,,,,,,,1005878000000436473,,
0ae302b6-ce08-40c7-9021-7bf585a48604,Kavita Pankaj Associates,ColourcoatsBigin,,,,,1df4e9a7-8801-4d06-8865-a7114ccf5971,,1005878000000436474,,,,,,,,,,,,,,,,,,,,,,1005878000000436474,,
10c4e804-225e-43b4-ae92-07e594b02466,Kcl Ketan Sir,ColourcoatsBigin,,,,,8f872c38-2c18-493f-b6f8-74bf6b37fe39,,1005878000000436475,,,,,,,,,,,,,,,,,,,,,,1005878000000436475,,
c1cd6e42-c053-49ef-bf8a-4d5d1d20d6e7,Kdad,ColourcoatsBigin,,,,,971ea808-a63e-4966-a75f-ec965824a148,,1005878000000436476,,,,,,,,,,,,,,,,,,,,,,1005878000000436476,,
75e3bf55-1c81-451a-9bae-ecff4db3f80e,Keyur Designer,ColourcoatsBigin,,,,,f59c8f00-3e59-43fc-9b8e-db5ee1781b43,,1005878000000436477,,,,,,,,,,,,,,,,,,,,,,1005878000000436477,,
7915c5a2-8de8-4445-a97f-b2e360750dcf,Khuslani Associates,ColourcoatsBigin,,,,,dcecc526-3b5b-4bea-8668-82596543331a,,1005878000000436478,,,,,,,,,,,,,,,,,,,,,,1005878000000436478,,
6271f22d-b3a1-4590-abcc-c0fc4c470d72,Kiran Gala & Associates,ColourcoatsBigin,,https://www.kgadesign.in/,,,d17cdc3f-7c2b-45b9-a308-326071d7542d,,1005878000000436479,,,,,,,,,,,,,,,,,,,,,,1005878000000436479,,
cd24f895-8343-4df1-b762-f82c019f4107,Kiran Shetty Design Studio,ColourcoatsBigin,,,Architects,,,,1005878000000457397,,,,,,,,,,,,,,,,,,,,,,1005878000000457397,,
5b0c0fc1-3e10-4f49-947a-39f1a68c7d89,Kkd Studio,ColourcoatsBigin,,,,,b837d12f-f4e2-4fcd-a8d2-11f88500e3d8,,1005878000000436481,,,,,,,,,,,,,,,,,,,,,,1005878000000436481,,
2b2b1748-bb68-4e82-b43a-bd2698436dac,Kns Architects,ColourcoatsBigin,,,,,13c74398-87bb-4456-8c96-db4dfed2aa7b,,1005878000000436482,,,,,,,,,,,,,,,,,,,,,,1005878000000436482,,
c807a282-eace-4dbc-96a7-19e2417def2c,L.C Architects,ColourcoatsBigin,,,,,381d9f17-7c88-44da-99ab-cb1c9a3242bc,,1005878000000436483,,,,,,,,,,,,,,,,,,,,,,1005878000000436483,,
4fb2b51c-b61e-450b-84b8-3deca107c206,Lewis & Hickey,ColourcoatsBigin,,,,,df787afe-d234-4e11-a781-aec90911c8ce,,1005878000000436484,,,,,,,,,,,,,,,,,,,,,,1005878000000436484,,
5e11fcd6-978e-4d1a-81cc-7676e70c98c7,Line Works,ColourcoatsBigin,,https://lineworks.co.in/,Architects,,,,1005878000000436485,,,,,,,,,,,,,,,,,,,,,,1005878000000436485,,
6b86c8ea-705b-40d2-bc8b-c6f8401de794,Lines & Grooves,ColourcoatsBigin,,,,,80d57bb7-883c-4946-86f9-31209c34ac2e,,1005878000000436486,,,,,,,,,,,,,,,,,,,,,,1005878000000436486,,
3289f44c-e67a-4f64-b0c8-b8f87a3ebf91,Lyth Design Studio,ColourcoatsBigin,,,,,efd1373a-e8dd-4f56-86b9-6f6b7453e678,,1005878000000436487,,,,,,,,,,,,,,,,,,,,,,1005878000000436487,,
0666f525-8f5f-47aa-935b-381080edc4ee,MD Interior Redefined,ColourcoatsBigin,,https://www.mdinteriorredefined.com/,,,ce70ca6f-cc94-4a4c-9a26-7f47efe0e01b,,1005878000000436495,,,,,,,,,,,,,,,,,,,,,,1005878000000436495,,
1bb71b8a-3377-4cb0-95bf-da7f66988223,Mahaveer Patil & Associates,ColourcoatsBigin,,https://mpatilassociates.com/,,,,,1005878000000436489,,,,,,,,,,,,,,,,,,,,,,1005878000000436489,,
1774ca27-b56d-48d8-bd93-4f591d2299e9,Mahek Aga Design Studio,ColourcoatsBigin,,,,,b837d12f-f4e2-4fcd-a8d2-11f88500e3d8,,1005878000000436491,,,,,,,,,,,,,,,,,,,,,,1005878000000436491,,
65b50e4c-ab93-4867-bb4c-213b1f90b900,Malik Architect,ColourcoatsBigin,,,,,c69a1d88-c6b1-4e13-a6c4-d2f4e9108e6c,,1005878000000436492,,,,,,,,,,,,,,,,,,,,,,1005878000000436492,,
c655963c-af61-4544-ac42-7eee1c230dbd,Mansi Kothari Designer,ColourcoatsBigin,,,,,5364fd7f-324e-487a-a086-30d313b778a9,,1005878000000436493,,,,,,,,,,,,,,,,,,,,,,1005878000000436493,,
5084bd11-ccc8-4aed-98c7-a8d83f223663,Martini Design Studio,ColourcoatsBigin,,,,,f9a5c83d-083b-4f8c-a9bf-1e47cf9045ea,,1005878000000436494,,,,,,,,,,,,,,,,,,,,,,1005878000000436494,,
00d64189-4d05-42b9-baf1-905a1f208c50,Mind Frames,ColourcoatsBigin,,,Interior Designers,,0dfc0db8-b68f-4490-b9a2-a879df95b93a,,1005878000000464394,,,,,,,,,,,,,,,,,,,,,,1005878000000464394,,
eb2a43b2-80bf-4eda-9842-868c042509b0,Minnie Bhatt,ColourcoatsBigin,,,,,5e0fada4-f0db-42ee-b447-111471746259,,1005878000000436496,,,,,,,,,,,,,,,,,,,,,,1005878000000436496,,
b63a178b-ac16-4762-9d0b-e76ca007a947,Mod,ColourcoatsBigin,,,,,17ea14e6-0e07-405a-8a29-49cdee298188,,1005878000000436497,,,,,,,,,,,,,,,,,,,,,,1005878000000436497,,
9e109148-8a89-4ff8-99db-63241158f26c,MorphLab,ColourcoatsBigin,,,,,979b8ea4-d7b9-4576-a491-a5a5ccaa32e5,,1005878000000436499,,,,,,,,,,,,,,,,,,,,,,1005878000000436499,,
187b5fed-21f4-45f5-b2f2-886087c1a8a6,Morphed,ColourcoatsBigin,,,,,f006a40f-0c56-420b-89aa-b15a269a0f2a,,1005878000000436498,,,,,,,,,,,,,,,,,,,,,,1005878000000436498,,
6c8fe9cd-8550-4212-b3d6-8b461ed226a6,NACL,ColourcoatsBigin,,,,,6a0e9287-94db-47f6-8979-dcefaf34de20,,1005878000000436502,,,,,,,,,,,,,,,,,,,,,,1005878000000436502,,
ecda766e-fa19-4c75-a6b4-0f8b644995e3,Na Designs,ColourcoatsBigin,,,,,128b891d-f529-43b4-aa2f-358457ded4f8,,1005878000000436501,,,,,,,,,,,,,,,,,,,,,,1005878000000436501,,
d0dcc3d9-f498-4bdc-89cd-83265b58507f,Nakul Munim Designs,ColourcoatsBigin,,,,,afd5e426-162f-4e56-8ee5-6fb829361c6a,,1005878000000436503,,,,,,,,,,,,,,,,,,,,,,1005878000000436503,,
81af8f29-7228-4a2f-a866-d04e603d5098,Naren Kuwadekar & Associates - India,ColourcoatsBigin,,,,,3710e4a1-f36d-4556-b41e-4ca566261f56,,1005878000000436504,,,,,,,,,,,,,,,,,,,,,,1005878000000436504,,
1b92d824-2f13-4195-9ac6-f65ff715a585,Naresh Shah Associates,ColourcoatsBigin,,,,,f0e739cd-c6b2-40ad-8abd-a794db8d0d93,,1005878000000436505,,,,,,,,,,,,,,,,,,,,,,1005878000000436505,,
97beb42b-b11a-4334-85d7-5514db19bf23,Navein Nisar Architect,ColourcoatsBigin,,,,,b15c21bb-75ac-461c-9c1a-981d05ff4b9d,,1005878000000436506,,,,,,,,,,,,,,,,,,,,,,1005878000000436506,,
2427dd19-7fad-4645-85fe-c7838690dc25,Neel Wadia Design Craft,ColourcoatsBigin,,,,,0b81e561-4a9a-4b36-a866-456b76404bac,,1005878000000436507,,,,,,,,,,,,,,,,,,,,,,1005878000000436507,,
1b6a5380-bf6e-4336-a9b4-ee6edc5fde94,Neelesh Chopada,ColourcoatsBigin,,,,,15424d75-29ad-4ffb-a8a1-58b7c772fe86,,1005878000000436508,,,,,,,,,,,,,,,,,,,,,,1005878000000436508,,
a834b23d-d539-442c-bbf7-ad229d00f20a,Neha & Parag,ColourcoatsBigin,,,,,1f467a83-37f2-4366-bf76-ba3ac531e6b1,,1005878000000436509,,,,,,,,,,,,,,,,,,,,,,1005878000000436509,,
ee6c5e93-5f6f-4baa-af50-d12c8a99ceb1,Nehal Garg Architect,ColourcoatsBigin,,,,,55f740fc-7de8-4740-afe2-d983578eea76,,1005878000000436510,,,,,,,,,,,,,,,,,,,,,,1005878000000436510,,
59a5f5f6-75b6-494a-b8bd-56aa0c28fc51,Neterwala & Aibara Interior Architects,ColourcoatsBigin,,https://www.neterwalaaibara.com/,Architects,,56bd1ae9-78e7-468f-9d43-051dfdbd2887,,1005878000000436511,,,,,,,,,,,,,,,,,,,,,,1005878000000436511,,
dcea606b-f698-4a46-a091-855bc51ba13a,Nishika Terrace,ColourcoatsBigin,,,Architects,,,,1005878000000460073,,,,,,,,,,,,,,,,,,,,,,1005878000000460073,,
9683e713-2fb2-44d5-893e-cad29f50aa5d,Noorien Kapoor Design,ColourcoatsBigin,,https://nooreinkapoor.com/,,,d6ea249d-2109-4734-a831-968a45056546,,1005878000000436512,,,,,,,,,,,,,,,,,,,,,,1005878000000436512,,
05a4f4ef-333f-4fd8-8bd6-9cc74024baeb,Nozer Wadia Associates,ColourcoatsBigin,,,,,4d99ced9-9129-4681-8ea5-809d5754f950,,1005878000000436513,,,,,,,,,,,,,,,,,,,,,,1005878000000436513,,
c8bab594-19af-4935-9ca0-5b24b4898df1,Npds,ColourcoatsBigin,,,,,b017ce13-5114-4668-932d-3f51678603c7,,1005878000000436514,,,,,,,,,,,,,,,,,,,,,,1005878000000436514,,
63eee3ce-14a4-4f2f-8ea1-68135e7a7f9b,Nsa - Naresh Shah & Associates,ColourcoatsBigin,,,,,8c22a293-edb2-4761-8914-e082a0edc935,,1005878000000436515,,,,,,,,,,,,,,,,,,,,,,1005878000000436515,,
b7234955-a5fb-4a40-97d5-e1dcc5867f71,P S Design,ColourcoatsBigin,,,,,e35b0ae0-a0ad-4a47-86ff-a795ec810e8f,,1005878000000436516,,,,,,,,,,,,,,,,,,,,,,1005878000000436516,,
c6410f47-14af-42e2-bf66-5a80a62af8f8,P.G. Patki,ColourcoatsBigin,,,,,624c3844-f4bf-4057-8f98-cd24a6813260,,1005878000000436517,,,,,,,,,,,,,,,,,,,,,,1005878000000436517,,
7e8f7eb9-da79-4975-8f8e-fe0205f47252,POTJ,ColourcoatsBigin,,,,,e612e1ff-ce1c-44b3-aa0a-d9e13f038ab6,,1005878000000436524,,,,,,,,,,,,,,,,,,,,,,1005878000000436524,,
dc0d4fb5-5806-431e-acb4-5e9e79439ca7,Palak Kothari,ColourcoatsBigin,,,,,f410b1cc-6125-450e-99b5-bb1af7f34a4d,,1005878000000436518,,,,,,,,,,,,,,,,,,,,,,1005878000000436518,,
4f0683fc-1327-445b-90ff-f7e5cd9611c1,Parag Mehta Associates,ColourcoatsBigin,,,,,65463486-56b0-4cc9-8173-bb3807d89fae,,1005878000000436519,,,,,,,,,,,,,,,,,,,,,,1005878000000436519,,
6a167ca6-9800-40ab-945d-0fe123882c7c,Parthenon Architects,ColourcoatsBigin,,,,,e436c688-32aa-450b-aa2c-dda697ed4df1,,1005878000000436520,,,,,,,,,,,,,,,,,,,,,,1005878000000436520,,
198ad9cb-951f-4b73-9f09-3595559bcf99,Pinakin Studio LLP.,ColourcoatsBigin,,,,,b30a1961-0059-483b-a10f-20054fe7a173,,1005878000000436521,,,,,,,,,,,,,,,,,,,,,,1005878000000436521,,
af3e5b9a-5f59-4edc-8a78-dad8cb89e274,Pink Octopus By T&J,ColourcoatsBigin,,https://www.instagram.com/pinkoctopus_by_t.j/,,,92cfa19b-9a2c-4745-a45f-5fea7394f998,,1005878000000436522,,,,,,,,,,,,,,,,,,,,,,1005878000000436522,,
00fe977d-054f-4a65-8b00-6bbb1bf45215,Pipaliya In Design,ColourcoatsBigin,,,,,e5c9cc84-4977-4b92-9c0e-a6060cd8cdcf,,1005878000000436523,,,,,,,,,,,,,,,,,,,,,,1005878000000436523,,
d7b89b9b-48d5-45ea-a811-36f28283aaef,Pradnesh Architect,ColourcoatsBigin,,,,,01a61301-a0fb-4d08-aa5c-6d6f56481d43,,1005878000000436525,,,,,,,,,,,,,,,,,,,,,,1005878000000436525,,
f2ae8842-bb5a-43f6-adff-f7054dbb01d3,Priya Bokadia,ColourcoatsBigin,,,,,02ebab32-e240-4511-8271-46925d636446,,1005878000000436526,,,,,,,,,,,,,,,,,,,,,,1005878000000436526,,
43ae0d34-7879-40f9-854e-37d5fee98749,Purple Backyard,ColourcoatsBigin,,,,,6570d0f1-420d-4016-96b2-b5866d88ba40,,1005878000000436527,,,,,,,,,,,,,,,,,,,,,,1005878000000436527,,
1a1419bb-c948-4ab8-ba93-a30a18d5f41e,Quetzal Design,ColourcoatsBigin,,,,,d9c85b99-a865-4ae2-a26e-b80dcf6b29ba,,1005878000000436528,,,,,,,,,,,,,,,,,,,,,,1005878000000436528,,
071affe5-e4ea-43da-9e98-c0f8549bb2eb,Quirk Studio,ColourcoatsBigin,,,,,037a6f05-4df7-442b-8379-17d2e5541bd1,,1005878000000436529,,,,,,,,,,,,,,,,,,,,,,1005878000000436529,,
78d2cd82-7054-4bff-ab67-3c65354dbdb2,RITU GOREGAOKER,ColourcoatsBigin,,,Architects,,,,1005878000000445602,7715905908,,,,,,,,,,,,,,,,,,7715905908,,,1005878000000445602,,
6debd64b-8268-4176-9d38-77e9be9b85da,Rajiv Maheshwari Architect,ColourcoatsBigin,,,,,12eb0fcc-48d8-4db7-8757-957ec3a5da95,,1005878000000436530,,,,,,,,,,,,,,,,,,,,,,1005878000000436530,,
d4425565-b072-4d95-ac96-51becd87fe93,Rajiv Saini & Associates,ColourcoatsBigin,,,,,493a635e-0136-44fc-ad6c-ff59e33de637,,1005878000000436531,,,,,,,,,,,,,,,,,,,,,,1005878000000436531,,
eeb535d8-df9e-4cba-bd02-e6d8f414cfd4,Rakhi Makwana,ColourcoatsBigin,,,,,42b39a89-b312-441b-b107-57bf17439de5,,1005878000000436532,,,,,,,,,,,,,,,,,,,,,,1005878000000436532,,
1acc3f81-7c33-43be-a3f6-a4252793f665,Ravi Nene Architect,ColourcoatsBigin,,,,,673f6527-399e-4a09-a56e-9fd106ecf836,,1005878000000436533,,,,,,,,,,,,,,,,,,,,,,1005878000000436533,,
d3f36e54-197d-4170-83ee-0d6f6328b651,Raymond,ColourcoatsBigin,,,,,db1e07f1-c075-4d87-a273-1df1cba06816,,1005878000000436534,,,,,,,,,,,,,,,,,,,,,,1005878000000436534,,
b790f49e-57e6-4ea7-ac52-12987191bbd4,Red Architects,ColourcoatsBigin,,,,,5001f7ed-d2a5-4f32-a78c-5d9809929664,,1005878000000436535,,,,,,,,,,,,,,,,,,,,,,1005878000000436535,,
198ea263-308d-4bdb-bd59-5899813a6b9a,Ride,ColourcoatsBigin,,,,,0b1b1655-d714-4fe4-9314-83a367bdb5f0,,1005878000000436536,,,,,,,,,,,,,,,,,,,,,,1005878000000436536,,
7075c53a-4e5d-4754-8ebd-704e5a33d1aa,Ritu Shetty Designer,ColourcoatsBigin,,,,,fb32a30a-1f9e-49d0-8da5-1204dde803f6,,1005878000000436537,,,,,,,,,,,,,,,,,,,,,,1005878000000436537,,
481b869f-6e37-4a6f-862c-058b9ae75798,Riya Agarwal Architect,ColourcoatsBigin,,,,,,,1005878000000436538,,,,,,,,,,,,,,,,,,,,,,1005878000000436538,,
22d232fc-c5b9-4613-960f-a991868c0f5a,Riya Interior Designer,ColourcoatsBigin,,,,,d4704816-98be-4dd3-9fbe-e262370fbfb4,,1005878000000436539,,,,,,,,,,,,,,,,,,,,,,1005878000000436539,,
234842af-2878-4b29-b911-7b405c2cffec,Rodium Realty Ltd.,ColourcoatsBigin,,https://rodium.net/,Real Estate Developers/Builders,,55ee2eb4-63a0-46cf-b71d-0258c0b3e3d5,,1005878000000436540,,,,,,,,,,,,,,,,,,,,,,1005878000000436540,,
024c7670-067a-4a6e-8536-4459233fe9ec,Rooshad Shroff,ColourcoatsBigin,,,,,6195eb22-9c36-414c-a312-0d155926acf3,,1005878000000436541,,,,,,,,,,,,,,,,,,,,,,1005878000000436541,,
232c397b-af1b-4868-bf2b-d61d6ed0101c,Ruchishank Designs,ColourcoatsBigin,,,,,,,1005878000000436542,,,,,,,,,,,,,,,,,,,,,,1005878000000436542,,
440260fa-0fc4-43a6-9b7f-59bf7794b2f6,Rushabh Parekh Design Studio,ColourcoatsBigin,,https://www.rpds.in/,,,9fd2f607-86bf-4a3a-b7b9-e43eac1fe2ab,,1005878000000436543,,,,,,,,,,,,,,,,,,,,,,1005878000000436543,,
7c2762d4-c230-4257-9344-0436446a4bc1,SMA,ColourcoatsBigin,,,,,157da0da-1c69-46a2-9beb-687d396f4f25,,1005878000000436565,,,,,,,,,,,,,,,,,,,,,,1005878000000436565,,
502074f4-3e2d-4c2b-98e6-417d13834894,SSA Architects,ColourcoatsBigin,,,,,b312e456-4c61-409c-844c-42e86c0dbe7c,,1005878000000436573,,,,,,,,,,,,,,,,,,,,,,1005878000000436573,,
e43e2109-65c4-42c2-ad10-959d92a5b7c2,Sagar Shah,ColourcoatsBigin,,,,,d228c244-1889-4169-b642-7663e4d45559,,1005878000000436544,,,,,,,,,,,,,,,,,,,,,,1005878000000436544,,
9006c98d-d739-4235-a16b-ab763fc55f87,Salt Studio,ColourcoatsBigin,,,,,e499626e-2623-49cd-850e-438d12a13c38,,1005878000000436545,,,,,,,,,,,,,,,,,,,,,,1005878000000436545,,
e6862604-b81c-4f0b-bb08-becd2dadcc1c,Sameer Gupte,ColourcoatsBigin,,,,,e217dd89-988a-42eb-93f7-c8f7933e99b5,,1005878000000436546,,,,,,,,,,,,,,,,,,,,,,1005878000000436546,,
7232a43b-092d-4ee9-b198-cb31063f5393,Sandeep Shikre & Associates (Ssa),ColourcoatsBigin,,,,,40734d9c-60ca-4931-893a-c12416369162,,1005878000000436547,,,,,,,,,,,,,,,,,,,,,,1005878000000436547,,
45a51b10-7a4b-4857-bb56-0eefadc7c60a,Sandeep Uchadiya Arcihtect,ColourcoatsBigin,,,,,8eb867cd-3bbf-4082-8812-a437a6e9e6cd,,1005878000000436548,,,,,,,,,,,,,,,,,,,,,,1005878000000436548,,
e298eb36-b385-4e66-b5d0-2ce9e0cbc3d6,Sandeep Yadur Bangalore,ColourcoatsBigin,,,,,416deeaa-8c20-4d01-83b0-99048dbb4764,,1005878000000436549,,,,,,,,,,,,,,,,,,,,,,1005878000000436549,,
3d010deb-6499-41a5-95ca-9b7a763ced4d,Saniya Kantawala Design,ColourcoatsBigin,,,,,83bc488f-29a4-4e7f-835a-9ba284099087,,1005878000000436550,,,,,,,,,,,,,,,,,,,,,,1005878000000436550,,
e07a5e8e-4c24-49c4-8f95-98f2150ce4db,Sanjay Chacko Architect,ColourcoatsBigin,,,,,2465ea71-7f6c-469d-b516-c7b6dd59e79c,,1005878000000436551,,,,,,,,,,,,,,,,,,,,,,1005878000000436551,,
b870da2e-8c7d-4593-bc91-ab10b1d8463b,Sanjay Parab Designer,ColourcoatsBigin,,,,,917a5697-66bf-45f7-99bf-e41fe41b6519,,1005878000000436552,,,,,,,,,,,,,,,,,,,,,,1005878000000436552,,
76dcc41a-b648-4188-84e5-cdc16b8ae56d,Sanjyt Syngh Design Studio,ColourcoatsBigin,,,,,6fdb896c-64ef-49a7-a29e-e231f82df878,,1005878000000436553,,,,,,,,,,,,,,,,,,,,,,1005878000000436553,,
c6bbe5d9-3887-4f21-a623-19ef4260bdbd,Sanman Architects & Interior,ColourcoatsBigin,,https://sanmanarchitects.com/,,,0333b086-5796-4c87-842f-5b9c7a1491ee,,1005878000000436554,,,,,,,,,,,,,,,,,,,,,,1005878000000436554,,
9062ab2e-de06-4d5f-9826-23e995d680c3,Scale Stories,ColourcoatsBigin,,,,,,,1005878000000436555,,,,,,,,,,,,,,,,,,,,,,1005878000000436555,,
7eb81372-2cad-44eb-8841-53ff1121710e,Seedle,ColourcoatsBigin,,,,,4bdd222d-4cbb-49ce-969c-ef9e6a69d103,,1005878000000436556,,,,,,,,,,,,,,,,,,,,,,1005878000000436556,,
88924400-ffd4-44c6-8cc9-a9ba35ac60ad,Seema Juneja,ColourcoatsBigin,,,,,a4029591-d347-4b32-9524-7c62261f8742,,1005878000000436557,,,,,,,,,,,,,,,,,,,,,,1005878000000436557,,
c71977ad-3b9a-43e1-8657-dd40ae1089c9,Seza,ColourcoatsBigin,,,,,d4b6aaf9-23bc-4d3b-bae5-f1f2c0c55e2b,,1005878000000436558,,,,,,,,,,,,,,,,,,,,,,1005878000000436558,,
7ccabf33-3c46-4e69-bbd6-51c2808f0153,Shilpa Gandhi,ColourcoatsBigin,,,,,f88176f4-b3c7-4b61-b827-d85d1f16f493,,1005878000000436559,,,,,,,,,,,,,,,,,,,,,,1005878000000436559,,
d8587813-4e42-4378-ae8f-8a174da1bd2b,Shonit Kotian,ColourcoatsBigin,,,,,50ee19c3-2823-40a6-af1e-bc85394213d1,,1005878000000436560,,,,,,,,,,,,,,,,,,,,,,1005878000000436560,,
1fa8a1fa-2655-46be-a636-1e1af725d04a,Shraddha Patil Archtect,ColourcoatsBigin,,,,,7d9470ee-6c01-47f1-b808-fee0e1c14c26,,1005878000000436561,,,,,,,,,,,,,,,,,,,,,,1005878000000436561,,
03adbd07-13f6-4443-a0c5-d54443d26f95,Shreya Architect,ColourcoatsBigin,,,,,c1607285-a767-42e0-b2b8-8380053ca7f3,,1005878000000436562,,,,,,,,,,,,,,,,,,,,,,1005878000000436562,,
3cab423f-d1f0-452c-a9ef-28252e34ba2d,Shroffleon,ColourcoatsBigin,,,,,4560236a-c373-45e4-87b7-f7fe0a9fe343,,1005878000000436563,,,,,,,,,,,,,,,,,,,,,,1005878000000436563,,
18c68e38-499b-4746-b907-ba2a1c9f6934,Shushant Deshmukh And Associates,ColourcoatsBigin,,,,,,,1005878000000436564,,,,,,,,,,,,,,,,,,,,,,1005878000000436564,,
53023905-b9b6-4785-9301-6051c159031d,Smit Shah Innovative Design,ColourcoatsBigin,,,Interior Designers,,,,1005878000000445364,9867370304,,,,,,,,,,,,,,,,,,9867370304,,,1005878000000445364,,
7d6a328c-ad91-48d9-b4a8-85cdbe239c42,Snehal Kabra,ColourcoatsBigin,,,,,753b241b-b600-4ea8-9d8c-c6ef9d77a224,,1005878000000436566,,,,,,,,,,,,,,,,,,,,,,1005878000000436566,,
c8ecd7e8-72d3-41a6-a9b1-408924cef612,Sona Reddy Studio,ColourcoatsBigin,,,,,1e9b6431-9936-40db-b3c5-a51d76b017c4,,1005878000000436567,,,,,,,,,,,,,,,,,,,,,,1005878000000436567,,
ab868f26-f21b-4519-809c-f80342e0e0fa,Space Dynamix,ColourcoatsBigin,,,,,c66975ea-1e44-4a0c-97e8-a8e63f89745b,,1005878000000436568,,,,,,,,,,,,,,,,,,,,,,1005878000000436568,,
af65649d-8e97-4c93-a882-c566c41c19bb,Space Tales,ColourcoatsBigin,,,,,,,1005878000000436569,,,,,,,,,,,,,,,,,,,,,,1005878000000436569,,
4bd2afac-7e0e-495d-9b87-be1f453019a4,Spaces And Design,ColourcoatsBigin,,,,,30f2a091-a175-4292-9898-14a281dee13b,,1005878000000436570,,,,,,,,,,,,,,,,,,,,,,1005878000000436570,,
c069b23b-06bb-46fc-bb73-34150809aadd,Spasm Design Architects,ColourcoatsBigin,,,,,37ce4b7d-9460-4a91-ba07-008cdc9ea742,,1005878000000436571,,,,,,,,,,,,,,,,,,,,,,1005878000000436571,,
ab6dff7b-b58e-46c1-bcc8-56a9424be517,Spatium Interiors,ColourcoatsBigin,,,,,de4bd880-1236-4539-834a-7dc96bc6202e,,1005878000000436572,,,,,,,,,,,,,,,,,,,,,,1005878000000436572,,
b446452e-07ef-4294-be82-4d206b5c2a65,Studio Arcon,ColourcoatsBigin,,https://www.studioarcon.in/,,,,,1005878000000436574,,,,,,,,,,,,,,,,,,,,,,1005878000000436574,,
b6501b61-e12e-43ca-90c5-bd6efb267bb3,Studio Astra,ColourcoatsBigin,,,,,,,1005878000000436575,,,,,,,,,,,,,,,,,,,,,,1005878000000436575,,
f7a1945a-c6bf-4a90-ba64-50e459567a3a,Studio Design Inc,ColourcoatsBigin,,,,,3b176bf9-e08e-4a95-8525-e8bb4fa90677,,1005878000000436576,,,,,,,,,,,,,,,,,,,,,,1005878000000436576,,
3c422062-f9c4-4802-81e2-49d16953da3b,Studio Emergence,ColourcoatsBigin,,,,,3b17ac5d-cf55-4ede-98f7-b5d196823112,,1005878000000436577,,,,,,,,,,,,,,,,,,,,,,1005878000000436577,,
ddc621ba-4b9f-4fe8-97e2-798fd0fbea5c,Studio HBA - Hirsch Bedner Associates,ColourcoatsBigin,,https://www.studiohba.com/,,,c87f57eb-27e2-47bc-af41-7acdacb00ad0,,1005878000000436579,,,,,,,,,,,,,,,,,,,,,,1005878000000436579,,
c588c1d8-ddb8-4b3e-984e-df3c309b27fe,Studio Hasta,ColourcoatsBigin,,,,,9113b438-14da-4513-a6b6-dc0beb834842,,1005878000000436578,,,,,,,,,,,,,,,,,,,,,,1005878000000436578,,
6f28d971-d5cc-4cf0-b5d5-c7e0f5ad367f,Studio Nishita Kamdar,ColourcoatsBigin,,,,,ef1dfe1c-7b27-48c3-9520-a584993413e2,,1005878000000436580,,,,,,,,,,,,,,,,,,,,,,1005878000000436580,,
52d258ba-5a06-44f8-82aa-60cea2dd3539,Studio OSMOSIS,ColourcoatsBigin,,,,,836b570f-3be4-41bf-ae23-44b3dd99a6bd,,1005878000000436581,,,,,,,,,,,,,,,,,,,,,,1005878000000436581,,
b38d7319-1d04-46c4-afce-48021e2fcd67,Studio SP,ColourcoatsBigin,,,,,09977128-406f-4d30-a41c-65fbdc9d9274,,1005878000000436582,,,,,,,,,,,,,,,,,,,,,,1005878000000436582,,
396e73b2-5962-4bda-8d41-b9d214ecf52b,Sunil Gambani Drishti Architects,ColourcoatsBigin,,,Architects,,,,1005878000000460084,,,,,,,,,,,,,,,,,,,,,,1005878000000460084,,
fcf3c7d6-9b5d-4366-a1ad-1f9dae2abfb9,Swati Interior,ColourcoatsBigin,,https://swatiinterior.com/,,,f88f4b5c-7788-44da-bd87-4dd3f14be2c0,,1005878000000436583,,,,,,,,,,,,,,,,,,,,,,1005878000000436583,,
99354a78-f258-4f0e-a7cb-f08c1844c49d,Swati Runwal Pune,ColourcoatsBigin,,,,,e51847cb-b40c-458f-a788-c277e5f5a7da,,1005878000000436584,,,,,,,,,,,,,,,,,,,,,,1005878000000436584,,
ccbeb7b0-3143-4409-a5b4-76a72eba714c,Switchover Studio,ColourcoatsBigin,,,,,270ee680-976d-403f-8afd-afcdb2b6aa69,,1005878000000436585,,,,,,,,,,,,,,,,,,,,,,1005878000000436585,,
27682e17-70d0-4117-92e1-1b436f3e3a2b,TAO Architecture,ColourcoatsBigin,,,,,5dc655f1-9be1-47e8-b907-6daa9eeee280,,1005878000000436588,,,,,,,,,,,,,,,,,,,,,,1005878000000436588,,
fa9d6a29-4811-43e1-be0a-b92821cb2b54,Talati and Partners LLP - India,ColourcoatsBigin,,,,,3a5e968c-0c32-4f23-96fc-023507bb1fcd,,1005878000000436586,,,,,,,,,,,,,,,,,,,,,,1005878000000436586,,
1b2921ac-143b-46c1-9bd3-4990141af0e3,Tanvi,ColourcoatsBigin,,,,,06ec4b5c-b9c1-40c6-9261-2141bda57c50,,1005878000000436587,,,,,,,,,,,,,,,,,,,,,,1005878000000436587,,
2d1064ff-e0b3-48e9-a3ad-9ecb084cf1b5,Tapan Arora Architect,ColourcoatsBigin,,,,,e1294df8-bc91-4475-83e1-d28729f333be,,1005878000000436589,,,,,,,,,,,,,,,,,,,,,,1005878000000436589,,
ec67e0a6-6731-415f-b355-ff92e07030f3,Test,ColourcoatsBigin,,,Architects,,,,1005878000000438105,,,,,,,,,,,,,,,,,,,,,,1005878000000438105,,
c1fbaf11-7799-4c3c-98b1-f3e2e97517e3,The Bnk Group,ColourcoatsBigin,,,,,d78febf3-b500-4081-8d26-0e1075990f5d,,1005878000000436590,,,,,,,,,,,,,,,,,,,,,,1005878000000436590,,
6dc3937f-20dd-4d13-bbfc-5bb5a0771858,The Designbox,ColourcoatsBigin,,,,,9a976593-8807-428b-82af-6e549a4218bf,,1005878000000436591,,,,,,,,,,,,,,,,,,,,,,1005878000000436591,,
c8ca67f4-7540-479b-b684-d0c22bfd550c,The Nuance studio,ColourcoatsBigin,,,,,a08f7c8d-fb25-4c9f-b419-3ff1e81e5946,,1005878000000436593,,,,,,,,,,,,,,,,,,,,,,1005878000000436593,,
3c6ba752-e801-4849-86a5-a113195f880c,Theme Design Studio,ColourcoatsBigin,,,,,2b41e8f9-8c02-4e6f-81c0-d7e9a8c2ed8d,,1005878000000436592,,,,,,,,,,,,,,,,,,,,,,1005878000000436592,,
090bde06-e3d0-4356-80e7-b85b40e99fcc,Two Sisters.,ColourcoatsBigin,,,,,47fb8a3b-2d56-46d1-a433-03fa1189c3b4,,1005878000000436594,,,,,,,,,,,,,,,,,,,,,,1005878000000436594,,
1a4f13b9-2095-4c7b-bd63-9c6bb14dda1b,Usine Studio,ColourcoatsBigin,,,,,eba189a2-9daf-4206-a02b-8c955092cafb,,1005878000000436595,,,,,,,,,,,,,,,,,,,,,,1005878000000436595,,
3f77a081-3846-49db-96c0-73868f7ee878,Vaishali Kamdar Associates,ColourcoatsBigin,,,,,442220fd-cb6f-4e7a-85c7-a0f7209a053d,,1005878000000436596,,,,,,,,,,,,,,,,,,,,,,1005878000000436596,,
6e8580e6-8c08-461e-801b-73173ecb8ac0,Vaishali Madam Khar,ColourcoatsBigin,,,,,ac8ba83b-7093-4b3d-9dcd-2e001c7c61cd,,1005878000000436597,,,,,,,,,,,,,,,,,,,,,,1005878000000436597,,
accdccf8-f7e3-4e0b-b9df-194da7d9dd83,Vaishali Zaveri Architect,ColourcoatsBigin,,,,,6b64e8c1-76db-4da5-95c6-1b22b98fe5aa,,1005878000000436598,,,,,,,,,,,,,,,,,,,,,,1005878000000436598,,
4f2bab0c-cfa7-4d64-92c0-54ae9664815b,Vidya Hukoo Architect,ColourcoatsBigin,,,,,f771b74f-5a48-45d2-b070-385229f616ac,,1005878000000436599,,,,,,,,,,,,,,,,,,,,,,1005878000000436599,,
1e7bf5df-4ab6-49e4-97fe-b459669f1db3,Vikas Bhujbal Design,ColourcoatsBigin,,,,,411a128a-c7ed-4d7d-a8ea-ff127dab0ee5,,1005878000000436854,,,,,,,,,,,,,,,,,,,,,,1005878000000436854,,
34518a88-7468-4b5b-beb5-34673b531b94,Vikram Bhatt,ColourcoatsBigin,,,,,0854811f-4913-4221-b9f2-5c126b1aa105,,1005878000000436855,,,,,,,,,,,,,,,,,,,,,,1005878000000436855,,
0176f217-7c55-4986-a088-3f11dc4b8bf4,Vishal Keradia,ColourcoatsBigin,,,,,e58ee4c9-105b-40bc-9ea9-c929e432feb4,,1005878000000436856,,,,,,,,,,,,,,,,,,,,,,1005878000000436856,,
e427007b-c736-425d-91bb-a1af5c43e6f7,Vyom Design Lab,ColourcoatsBigin,,,,,cb5ba562-a648-4c5d-8e5a-29342ef89335,,1005878000000436857,,,,,,,,,,,,,,,,,,,,,,1005878000000436857,,
cba1055f-a333-4ad1-828f-9245e7353f40,Yellow Brick Road Designs,ColourcoatsBigin,,,,,628c70d8-070e-4d26-8dbc-d6e67adf30c3,,1005878000000436858,,,,,,,,,,,,,,,,,,,,,,1005878000000436858,,
5c4c7029-7f45-4658-b198-7bd99cc973d8,Zubin Design Matrix,ColourcoatsBigin,,,,,17370fbc-dce6-4943-8c17-1e989dd2d770,,1005878000000436859,,,,,,,,,,,,,,,,,,,,,,1005878000000436859,,
8153533c-e787-47e8-988a-8eaf01982c8c,Zylker Corp,ColourcoatsBigin,,https://help.zoho.com/portal/community/bigin,,,,,1005878000000418033,609-281-3662,,8 W Cerritos Ave #54,Bridgeport,New Jersey,,,,,,,,,,,,,,609-281-3662,,,1005878000000418033,,
98e413a9-4e99-4507-bdfc-c6ba020deb56,md architect,ColourcoatsBigin,,mdinteriorredefined.com,Architects,,,,1005878000000457239,8550070000,,,,,,,,,,,,,,,,,,8550070000,,,1005878000000457239,,
6342268b-d270-45c6-90e6-8b8b466c3c7d,Atrey & Associates,ColourcoatsBigin+MetaliaBigin,,https://atreydesign.com/,,,,,1005878000000436380,,,,Delhi,,,,,,,,,,,,,,,,,,1005878000000436380,978312000000439665,
c0d83f4c-c5b7-4bf9-a6a8-bf9fe9978c3f,ZZ Architects,ColourcoatsBigin+MetaliaBigin,,,Architects,,66c5dcc7-08c6-49cf-8ed9-1970f1c670d7,,1005878000000436860,,,,,,,,,,,,,,,,,,,,,,1005878000000436860,978312000000447248,
23cea76b-68bc-4e8c-83f9-d3892c6f6dbb,Mind Frames,ColourcoatsBigin+Rolodex,"Bharat Founders Fund is an early-stage venture group of the most successful Indian entrepreneurs globally, comprising of Founders who are willing to back and support the future founders building for Bharat.",bharatplatform.com,Interior Designers,,0dfc0db8-b68f-4490-b9a2-a879df95b93a,,1005878000000464394,,,,,,,,,,,org_2x7MLX8quU7NSiirWdUVX0RLCbz,"Bharat Founders Fund is an early-stage venture group of the most successful Indian entrepreneurs globally, comprising of Founders who are willing to back and support the future founders building for Bharat.",https://cdn.rolodexcrm.com/img/org_2x7MLX8quU7NSiirWdUVX0RLCbz/company/0dfc0db8-b68f-4490-b9a2-a879df95b93a-original-3tulN.png,,bharatfoundersfund,,,,,,2.0,1005878000000464394,,0dfc0db8-b68f-4490-b9a2-a879df95b93a
f0568969-e236-4038-8174-c92e499c8431,1970,MetaliaBigin,,,,,,,978312000000439658,,,,Delhi,,,,,,,,,,,,,,,,,,,978312000000439658,
f3b64558-975d-4a4d-93c8-a00fcbc45bd8,1vision,MetaliaBigin,,,,,,,978312000000439659,,,,Delhi,,,,,,,,,,,,,,,,,,,978312000000439659,
8114c748-521e-4a27-afe7-af37e45a1331,32mm,MetaliaBigin,,,,,,,978312000000439660,,,,Delhi,,,,,,,,,,,,,,,,,,,978312000000439660,
de2aa72d-8870-4ce0-b7bb-7f69b7b5c876,36 Mansion,MetaliaBigin,,,,,,,978312000000468249,,,,,,,,,,,,,,,,,,,,,,,978312000000468249,
de628b2d-dc42-4515-bce4-a3ca0174c374,36 Mansions,MetaliaBigin,,,Architect,,,,978312000000447249,,,,,,,,,,,,,,,,,,,,,,,978312000000447249,
142d378a-4ed9-4d7e-b6a0-4a4cf06e0709,42MM,MetaliaBigin,,,Architect,,,,978312000000422316,,,,Delhi,Delhi,,,,,,,,,,,,,,,,,,978312000000422316,
956dad6f-fb4e-445c-bd53-1419adff89e6,42MM,MetaliaBigin,,,Architect,,7389ba44-7642-427b-bafe-f9b8225a8164,,978312000000422286,,,,Delhi,Delhi,,,,,,,,,,,,https://www.instagram.com/42mmarchitecture/,,,,,,978312000000422286,
33bfde10-8b97-455d-868b-41d3c5ed13d9,AD RS Design Sutdio,MetaliaBigin,,,,,,,978312000000439661,,,,Bhopal,,,,,,,,,,,,,,,,,,,978312000000439661,
790c66fd-8848-4a6e-aaf4-296895463563,ADND,MetaliaBigin,,,Architect,,,,978312000000447247,,,,,,,,,,,,,,,,,,,,,,,978312000000447247,
5c541922-0e8c-42a4-81be-6881461eb112,AND Design,MetaliaBigin,,,,,,,978312000000439663,,,,Delhi,,,,,,,,,,,,,,,,,,,978312000000439663,
2b33433a-1fe0-43be-bf43-cb6c536d1ac1,AND Studio,MetaliaBigin,,,Architect,,,,978312000000470653,,,,,,,,,,,,,,,,,,,,,,,978312000000470653,
26f85d60-49f2-41eb-b37a-c4d5237d7832,Aayaam Design Studio,MetaliaBigin,,https://aayaamdesignstudio.com/,Architects,,,,978312000000509260,831 923 3205,['Residential'],,,,,,,,,,,,,,,,,831 923 3205,,,,978312000000509260,
21753840-1bb0-47b7-8de5-b9f4cdfefa55,Aditya Birla Group,MetaliaBigin,,,Architect,,ebb1420d-98d1-416d-ad39-fb81ee1bf6bc,,978312000000422285,,,,Delhi,Delhi,,,,,,,,,,,,https://www.instagram.com/adityabirlagrp/,,,,,,978312000000422285,
a0f1b884-eb9a-49c7-8fe4-0ef855b3b504,All Home,MetaliaBigin,,,Individual/Direct Clients,,,,978312000000509428,,,,,,,,,,,,,,,,,,,,,,,978312000000509428,
0ec0c695-07cf-4a7f-b4b2-8ae3f3a9a106,Ambika Group,MetaliaBigin,,,Architect,,,,978312000000422298,,,,Delhi,Delhi,,,,,,,,,,,,,,,,,,978312000000422298,
cd158aea-200a-4b3c-82e1-72d74100b677,Anagram,MetaliaBigin,,,,,,,978312000000439662,,,,Delhi,,,,,,,,,,,,,,,,,,,978312000000439662,
6dbb48d5-f9a5-43b1-870e-d242dc71ec9f,And Aiims Guwhati,MetaliaBigin,,,,,,,978312000000490155,,,,,,,,,,,,,,,,,,,,,,,978312000000490155,
25324af0-7ca1-4c8b-9a18-1b34529e1ece,Ansa interior,MetaliaBigin,,,Architects,,dcff88ba-247c-489d-ba9d-f4006d01883c,,978312000000490545,,,,,,,,,,,,,,,,,,,,,,,978312000000490545,
65c48c04-8194-4377-838e-ae62743879b4,Ar Ajay singh indore,MetaliaBigin,,,Architects,,,,978312000000490272,,,,,,,,,,,,,,,,,,,,,,,978312000000490272,
f231fbe2-7f30-43e4-b62a-3d31480e27f3,Ar Devika team,MetaliaBigin,,,Architect,,,,978312000000422317,,,,Delhi,Delhi,,,,,,,,,,,,,,,,,,978312000000422317,
57662cb8-23fe-4709-ba30-632e4ca7ffec,Arch jagdish kumawat jaipur,MetaliaBigin,,,,,,,978312000000433421,,,,,,,,,,,,,,,,,,,,,,,978312000000433421,
b598b109-0100-4c80-a9a3-805fa6278074,Archirace Studio,MetaliaBigin,,,Architect,,,,978312000000422303,,,,Delhi,Delhi,,,,,,,,,,,,,,,,,,978312000000422303,
5f0ae7e6-6c31-4d66-b739-3e713dcbab05,Archpolis design,MetaliaBigin,,,Architect,,,,978312000000470654,,,,,,,,,,,,,,,,,,,,,,,978312000000470654,
d40da3e5-119c-4942-92f0-3a800a91c393,Ardete,MetaliaBigin,,,,,e3e78489-76c6-427f-bde0-4f6e91b8a7af,,978312000000439664,,,,Panchkula,,,,,,,,,,,,,,,,,,,978312000000439664,
8da0116a-b6a8-4e23-9702-2ad975862bde,Aryan Promoters and Builders,MetaliaBigin,,,Architect,,,,978312000000422318,,,,Raipur,Chhattisgarh,,,,,,,,,,,,,,,,,,978312000000422318,
5f200f06-aa69-443a-9b3d-cfd44c5fedf3,Asro Arcad,MetaliaBigin,,,Architect,,a05d6869-779f-47ad-b45f-6319819197a9,,978312000000422290,,,,Delhi,Delhi,,,,,,,,,,,,,,,,,,978312000000422290,
7c362f80-476d-4d43-b577-545aad2c4553,Asro Arcade,MetaliaBigin,,,Architect,,a05d6869-779f-47ad-b45f-6319819197a9,,978312000000470655,,,,,,,,,,,,,,,,,,,,,,,978312000000470655,
1706e9c3-328f-4e74-bb38-3092caf6d936,Atmosphere,MetaliaBigin,,,Architect,,0f0bdeac-700a-45e9-9d0f-c301acef4b89,,978312000000447245,,,,,,,,,,,,,,,,,,,,,,,978312000000447245,
fdeb732a-4ab1-4d08-948a-5ecc9f1f68af,Attico,MetaliaBigin,,,,,,,978312000000447243,,,,,,,,,,,,,,,,,,,,,,,978312000000447243,
308e7f42-d99e-495c-a992-4f00fcdb5eb4,Attico Homes,MetaliaBigin,,,,,,,978312000000439666,,,,Delhi,,,,,,,,,,,,,,,,,,,978312000000439666,
17fd4f5d-e058-4ecd-8360-c4ba028b7d67,August Design Lab,MetaliaBigin,,,,,ec37d819-36cd-4202-a46d-e236dcf5fbac,,978312000000439667,,,,Karnal,,,,,,,,,,,,,,,,,,,978312000000439667,
280bf9a2-65a0-4762-85a8-0a15d6ce74f6,Avighna Group,MetaliaBigin,,,Architect,,,,978312000000447255,,,,,,,,,,,,,,,,,,,,,,,978312000000447255,
f7d7f17c-07a8-4a42-bea5-18d0daceda58,BA Basics Ar.,MetaliaBigin,,,,,,,978312000000439668,,,,Delhi,,,,,,,,,,,,,,,,,,,978312000000439668,
0564fca5-d8df-4123-b59b-49c893903c22,BUILDER,MetaliaBigin,,,,,,,978312000000433083,,,,,,,,,,,,,,,,,,,,,,,978312000000433083,
2b622673-6404-4904-ad0a-1dd167bf31e7,Best Roadways,MetaliaBigin,,,,,,,978312000000468250,,,,,,,,,,,,,,,,,,,,,,,978312000000468250,
94d573f4-d03e-456c-98b6-58999c5b5553,Bhardwaj Design & Associates,MetaliaBigin,,,,,,,978312000000439669,,,,Noida,,,,,,,,,,,,,,,,,,,978312000000439669,
a07e6aed-53f1-4e0a-9df2-58667ac2a4fb,Brixel,MetaliaBigin,,,Architect,,f95fbfe5-5780-4be2-abad-e37a0c1b887d,,978312000000422309,,,,Prayagraj,Uttar Pradesh,,,,,,,,,,,,,,,,,,978312000000422309,
7c113373-a4f4-4d6a-b261-ce31d3b96977,CPK,MetaliaBigin,,,,,,,978312000000439671,,,,Delhi,,,,,,,,,,,,,,,,,,,978312000000439671,
98c02603-446b-46f0-8cb3-f9afbe6c745b,CS82,MetaliaBigin,,,Architect,,,,978312000000470656,,,,,,,,,,,,,,,,,,,,,,,978312000000470656,
b29a099b-3286-439a-a5ad-78990bd415f6,Cityspace 82,MetaliaBigin,,,,,,,978312000000433298,,,,Gurgaon,,,,,,,,,,,,,,,,,,,978312000000433298,
889e620b-5124-48a3-983c-d13ab98ae70d,Confluence,MetaliaBigin,,,Architect,,,,978312000000422280,,,,Delhi,Delhi,,,,,,,,,,,,https://www.instagram.com/confluence_consultancy,,,,,,978312000000422280,
cad07bca-123c-4332-aeb8-b6a8f621569b,Corpora,MetaliaBigin,,,,,,,978312000000439670,,,,Delhi,,,,,,,,,,,,,,,,,,,978312000000439670,
1d8a20a9-2640-41ab-8999-dd11d4ebae20,Credo Interior and consultation,MetaliaBigin,,https://qliqo.in/CREDO2,Real Estate Developers/Builders,,,,978312000000491080,99530 15457,['Residential'],,Delhi,,,,,,,,,,,,,,,99530 15457,,,,978312000000491080,
6803fb73-bbaf-4345-bde8-134311bc1e41,DAVINCIYA,MetaliaBigin,,,Architect,,,,978312000000470657,,,,,,,,,,,,,,,,,,,,,,,978312000000470657,
c31b8de8-34d5-4635-91d0-396da0c4d088,DCA Architects,MetaliaBigin,,,Architect,,aae5663f-4545-43f0-b4af-421f4570cfc4,,978312000000422306,,,,Delhi,Delhi,,,,,,,,,,,,,,,,,,978312000000422306,
c4eece36-958d-4eb1-9400-5860dd2c62fd,DEVELOPER,MetaliaBigin,,,,,,,978312000000433322,,,,,,,,,,,,,,,,,,,,,,,978312000000433322,
325ae841-23f8-4e4f-8f44-7aca4970bb0e,DFI,MetaliaBigin,,,,,,,978312000000439674,,,,Delhi,,,,,,,,,,,,,,,,,,,978312000000439674,
0af2489b-dd97-4424-8e5a-324f08cfa3af,DPA,MetaliaBigin,,,Architects,,,,978312000000500125,,,,Delhi,,,,,,,,,,,,,,,,,,,978312000000500125,
2e31faa4-d1c7-463b-b13d-ef634a1248dd,Deepak Goyal.ref Ansa Sept 2025,MetaliaBigin,,,,,,,978312000000512184,,,,,,,,,,,,,,,,,,,,,,,978312000000512184,
8c3f67af-fcb7-4e79-a060-96718706280a,Design Architto,MetaliaBigin,,,,,,,978312000000439672,,,,Delhi,,,,,,,,,,,,,,,,,,,978312000000439672,
ae6e1044-498c-4a67-8985-c192604a730e,Design Atelier,MetaliaBigin,,,Architect,,,,978312000000422305,,,,Delhi,Delhi,,,,,,,,,,,,,,,,,,978312000000422305,
3004cca1-12b6-4640-96d5-8acd9541c03f,Design Atlier,MetaliaBigin,,,Archietct,,13f77631-13cb-48e5-adc2-16306f3b8c16,,978312000000447258,,,,,,,,,,,,,,,,,,,,,,,978312000000447258,
d8eeffdd-e01a-4cda-a312-7826a2bc393b,Design Berry studio,MetaliaBigin,,,,,,,978312000000447244,,,,,,,,,,,,,,,,,,,,,,,978312000000447244,
a72415b1-a778-409a-886f-5bbc51d8799f,Design Consortia,MetaliaBigin,,,Architect,,,,978312000000433042,,,,Delhi,,,,,,,,,,,,,,,,,,,978312000000433042,
94f6d9d9-ba92-4740-8797-93fa30a2f837,Design Doodle,MetaliaBigin,,,Architect,,21c51c6d-f6a3-49c7-a968-72b659dafbb3,,978312000000422283,,,,Delhi,Delhi,,,,,,,,,,,,https://www.instagram.com/designdoodle.in/,,,,,,978312000000422283,
184960b3-e3c5-4397-a6c1-dc2cad2224cd,Design Ethics,MetaliaBigin,,,,,,,978312000000439673,,,,Delhi,,,,,,,,,,,,,,,,,,,978312000000439673,
3d7a682f-4413-4139-b57d-ce89a647cc6b,Design affairs,MetaliaBigin,Anurag jain,,,,74c47485-d6a6-4934-92a5-610a5f184f0f,,978312000000437561,+91 98100 85659,,,,,,,,,,,,,,,,,,+91 98100 85659,,,,978312000000437561,
70cf630e-22ee-48de-a6ee-da314ab0212e,Design atlelier jaipur (nikhil agg),MetaliaBigin,,,Architects,,,,978312000000517175,,,,,,,,,,,,,,,,,,,,,,,978312000000517175,
b702d57a-e90f-4389-a82b-5e0c293ab64c,Draw Design,MetaliaBigin,,,,,739c64e4-34b3-4654-a8be-b037c3f32712,,978312000000439675,,,,Gurgaon,,,,,,,,,,,,,,,,,,,978312000000439675,
6f6590aa-c835-4e87-9d77-168f5ccf1fac,E-MAIL,MetaliaBigin,,,,,,,978312000000440416,,,,,,,,,,,,,,,,,,,,,,,978312000000440416,
98c18ea0-9bde-428a-8a2e-4cd4dd007d81,EDC Arch,MetaliaBigin,,,Architect,,,,978312000000422293,,,,Delhi,Delhi,,,,,,,,,,,,,,,,,,978312000000422293,
3fb4c957-aaed-4552-9a56-b7f7b8fc59ee,END USER,MetaliaBigin,,,,,,,978312000000433052,,,,,,,,,,,,,,,,,,,,,,,978312000000433052,
7a72f35e-b7fb-45c0-aa0f-b46102f71787,Essence,MetaliaBigin,,,Architect,,,,978312000000422288,,,,Delhi,Delhi,,,,,,,,,,,,,,,,,,978312000000422288,
8b031b7b-8413-4e23-9c24-ce767e9aa8b3,Essentia environment,MetaliaBigin,,https://essentiaenvironments.com/,Architects,,0e504fc0-8e8d-45fe-823a-a50600f69c56,,978312000000491219,70602 55506,['Retail'],,Delhi,,,,,,,,,,,,,,,70602 55506,,,,978312000000491219,
0939af6a-414b-4130-b1da-a95b9fd8795c,Ex Design Consortia,MetaliaBigin,,,Architect,,,,978312000000470658,,,,,,,,,,,,,,,,,,,,,,,978312000000470658,
cf3ab40f-e408-4742-b88d-ec54169d12d8,Exhale Interiors,MetaliaBigin,,,Architect,,,,978312000000470659,,,,,,,,,,,,,,,,,,,,,,,978312000000470659,
632ddd73-2ff3-4280-9851-d0914c5a2436,Exhale inetriors,MetaliaBigin,,,,,,,978312000000439676,,,,Morbi Gujarat,,,,,,,,,,,,,,,,,,,978312000000439676,
4b4429e2-3990-4a3a-bb94-647514a4a0e0,GBS INFRA,MetaliaBigin,,,,,,,978312000000470230,,,,,,,,,,,,,,,,,,,,,,,978312000000470230,
9f12b1cd-657e-4d8a-a199-f184ee99e2bf,GPM,MetaliaBigin,,,,,14863806-c3a8-40a5-9305-ac6602d55c11,,978312000000439677,,,,,,,,,,,,,,,,,,,,,,,978312000000439677,
fb460400-382e-416c-a2bd-a89faf496152,GREENBOX,MetaliaBigin,,,,,,,978312000000433332,,,,,,,,,,,,,,,,,,,,,,,978312000000433332,
0cf6e806-9ba5-4eb4-b6e0-97331fb1a54d,Garnet,MetaliaBigin,,,Architect,,,,978312000000422311,,,,Mumbai,Maharashtra,,,,,,,,,,,,,,,,,,978312000000422311,
c7b43b5e-1845-4e39-8905-1ca16963f305,Gian p mathur assoc,MetaliaBigin,,,,,,,978312000000433466,,,,,,,,,,,,,,,,,,,,,,,978312000000433466,
8690b9de-261e-418a-ab51-697f99df0013,Green Box,MetaliaBigin,,,Architect,,,,978312000000422284,,,,Gurgaon,Delhi,,,,,,,,,,,,,,,,,,978312000000422284,
8a0f619a-75d6-4629-b703-acecdd0e3a81,HABITATA DEVELOPER,MetaliaBigin,,,,,,,978312000000528067,,,,,,,,,,,,,,,,,,,,,,,978312000000528067,
bf75f55e-780e-424e-bf41-56f31813cd02,Habitat,MetaliaBigin,,,Architect,,,,978312000000439678,,,,Ludhiana,,,,,,,,,,,,,,,,,,,978312000000439678,
6c8b8c6e-286c-43d2-8240-9139a8c50b78,Hafeez Contractor,MetaliaBigin,,,Architect,,0da640d7-9b49-4b5b-8716-fee561db2c96,,978312000000470660,,,,,,,,,,,,,,,,,,,,,,,978312000000470660,
8508c110-421e-4d96-b4c8-26df6f43b79d,Hafeez Contrator,MetaliaBigin,,,,,0da640d7-9b49-4b5b-8716-fee561db2c96,,978312000000439679,,,,Mumbai,,,,,,,,,,,,,,,,,,,978312000000439679,
8b1a411a-6430-4d49-b746-507814b08518,Hitesh Katiyar Architecture and Design Studio,MetaliaBigin,,,,,,,978312000000439680,,,,Noida,,,,,,,,,,,,,,,,,,,978312000000439680,
fdf1a8bc-ec04-47f1-a2ea-3536518f1f16,IPIPL,MetaliaBigin,,,Architect,,465e8b3e-b32b-4836-b160-4deb6d0144e2,,978312000000422304,,,,Delhi,Delhi,,,,,,,,,,,,,,,,,,978312000000422304,
2b6bd3dd-e8bb-4876-a9d9-52449edcbd13,Interspace,MetaliaBigin,,,,,1b79770b-d182-4c15-b577-9975398ac0d0,,978312000000439681,,,,Gurgaon,,,,,,,,,,,,,,,,,,,978312000000439681,
c624fca9-93cb-44a8-95a9-6a1be574b1cc,JSB,MetaliaBigin,,,,,,,978312000000468248,,,,,,,,,,,,,,,,,,,,,,,978312000000468248,
41284ac3-dd15-4744-966f-96032a8b634d,Joshi Arch.,MetaliaBigin,,,,,,,978312000000439682,,,,Gurgaon,,,,,,,,,,,,,,,,,,,978312000000439682,
1a9ce0b9-d973-4bd0-b28e-080b433b526b,Kanvinde Rai & Chowdhury Ar.,MetaliaBigin,,,,,,,978312000000439683,,,,Delhi,,,,,,,,,,,,,,,,,,,978312000000439683,
f0557b97-17c0-445d-b7f9-437a761b8a77,Karan Desai,MetaliaBigin,,,Architect,,55d73681-bbda-47a6-b8bf-bcb80e8d623e,,978312000000447250,,,,,,,,,,,,,,,,,,,,,,,978312000000447250,
a3730dfb-96d7-4431-84aa-18d35c182c75,Kartik Aggarwal Muzaffarnagar,MetaliaBigin,,,,,,,978312000000437201,,,,,,,,,,,,,,,,,,,,,,,978312000000437201,
398bd980-89cd-4e9f-9892-5345f0663f8f,Kripa Developers,MetaliaBigin,,,Developer,,,,978312000000447253,,,,,,,,,,,,,,,,,,,,,,,978312000000447253,
304740e0-48fb-4f5f-8b06-c9b879c25c8e,Kumar Moorthy & Assocites,MetaliaBigin,,,,,,,978312000000439684,,,,Delhi,,,,,,,,,,,,,,,,,,,978312000000439684,
5d7890c8-d1fe-4c8a-a572-cd9581b92dfd,Line N Space,MetaliaBigin,,,Architect,,,,978312000000422287,,,,Delhi,Delhi,,,,,,,,,,,,,,,,,,978312000000422287,
4e595a92-e61b-4ccf-811e-bc38a98d83fe,Living Space,MetaliaBigin,,,,,,,978312000000439685,,,,Ludhiana,,,,,,,,,,,,,,,,,,,978312000000439685,
54f4b114-daf1-4b0f-bee0-8c77a0b7e35e,Luxury Homes,MetaliaBigin,,,Architect,,,,978312000000422299,,,,Delhi,Delhi,,,,,,,,,,,,,,,,,,978312000000422299,
e6b6116a-9394-49dd-8d20-a3924d917b50,Luxury homes builder,MetaliaBigin,,,,,,,978312000000439387,9871200005,,,,,,,,,,,,,,,,,,9871200005,,,,978312000000439387,
3b442d61-a6d5-4537-839b-6e03d694fe73,M2K,MetaliaBigin,,,,,,,978312000000537047,,,,,,,,,,,,,,,,,,,,,,,978312000000537047,
66edf595-eb81-47d7-8312-e6db47a4c6b1,M3M,MetaliaBigin,,,Architect,,,,978312000000422297,,,,Delhi,Delhi,,,,,,,,,,,,,,,,,,978312000000422297,
ad75bd6e-030c-4994-aad1-195e835e0a7f,MOFA,MetaliaBigin,,,,,a97db7bb-8a19-46cb-b9c5-f3bf9a263861,,978312000000439688,,,,Delhi,,,,,,,,,,,,,,,,,,,978312000000439688,
f33c2cae-fe5f-49a3-b62c-cf37d2c0a949,MORPH DESIGN,MetaliaBigin,,,,,1b3cd69c-338a-44a9-a7ff-e2a2b4ffacf4,,978312000000470435,,,,,,,,,,,,,,,,,,,,,,,978312000000470435,
bfdd5057-4359-4354-9cca-c10b3b8442c4,Made studio,MetaliaBigin,,,Architect,,,,978312000000422307,,,,Jaipur,Rajasthan,,,,,,,,,,,,,,,,,,978312000000422307,
896d5faf-1474-4852-8999-3d585a720996,Mankind,MetaliaBigin,,,,,,,978312000000468247,,,,,,,,,,,,,,,,,,,,,,,978312000000468247,
a2674e50-c124-4843-80ae-69d7d09712ae,Matra Architects,MetaliaBigin,,,,,,,978312000000439686,,,,Delhi,,,,,,,,,,,,,,,,,,,978312000000439686,
38f79927-a5ff-4657-bc40-17a461b4bbfc,Minimalist,MetaliaBigin,,,,,,,978312000000439687,,,,Ludhiana,,,,,,,,,,,,,,,,,,,978312000000439687,
9b151c56-a27f-48c4-97ad-8dea8d01099b,Mohit gupta,MetaliaBigin,,,Architects,,,,978312000000437336,9811147231,,,,,,,,,,,,,,,,,,9811147231,,,,978312000000437336,
da70560c-9c69-42bc-80eb-13abefb4ac8f,Mohitgupta,MetaliaBigin,Noida,,,,,,978312000000437539,98111 47231,,,,,,,,,,,,,,,,,,98111 47231,,,,978312000000437539,
63442fc5-69f3-4f1c-ac63-46b75e53a84e,Mold,MetaliaBigin,,,,,,,978312000000439689,,,,Delhi,,,,,,,,,,,,,,,,,,,978312000000439689,
06732acf-c3fe-401b-819b-79e99f8bf401,Morpho,MetaliaBigin,,,Architect,,b91d2e96-5071-4ef7-8c86-ddb3a2438a40,,978312000000422308,,,,Delhi,Delhi,,,,,,,,,,,,,,,,,,978312000000422308,
3efc8001-3b72-4ef5-80ff-b8b96f002b10,Nirmal constr,MetaliaBigin,,,Real Estate Developers/Builders,,,,978312000000490488,,,,Delhi,,,,,,,,,,,,,,,,,,,978312000000490488,
610c2edd-dd63-4cdc-89d2-a4d1155dacd9,Novarch,MetaliaBigin,,,,,,,978312000000439690,,,,Delhi,,,,,,,,,,,,,,,,,,,978312000000439690,
f0c498f0-cbf9-4976-8237-02ecd3f1809f,Nuberg,MetaliaBigin,,,,,,,978312000000468244,,,,,,,,,,,,,,,,,,,,,,,978312000000468244,
cd00d85f-3dcb-47b0-a9b4-219195b44798,OATS,MetaliaBigin,,,,,,,978312000000439691,,,,Noida,,,,,,,,,,,,,,,,,,,978312000000439691,
daacd1e7-b0b1-4dfd-b5c2-bc5395bc8f4b,P Arora Asscocites,MetaliaBigin,,,,,,,978312000000439692,,,,Delhi,,,,,,,,,,,,,,,,,,,978312000000439692,
35d983bf-d073-4c64-8f4e-12ac6fcd3a47,PMC - Arch Point,MetaliaBigin,,,Architect,,,,978312000000422314,,,,Jaipur,Rajasthan,,,,,,,,,,,,,,,,,,978312000000422314,
3fed9cb2-d27a-4fb6-a4f4-78e8ceba8a3e,PS Arora,MetaliaBigin,,,,,,,978312000000512702,,,,,,,,,,,,,,,,,,,,,,,978312000000512702,
05ffd2be-1f94-4f6f-96bd-73febeb1cd67,Paliwal & Associates,MetaliaBigin,,https://www.paliwalandassociates.com/,Architects,,,,978312000000475400,8130478175,,,Delhi,,,,,,,,,,,,,,,8130478175,,,,978312000000475400,
aae21787-6243-413b-85a3-8ad28e625b64,Paradigam Design,MetaliaBigin,,,,,01a28bc4-b186-4a9a-b0ff-658c0eb4b4cf,,978312000000439693,,,,Delhi,,,,,,,,,,,,,,,,,,,978312000000439693,
0b829ae0-1d08-4e25-923a-31c26a2c4bb1,Parashift Design Studio,MetaliaBigin,,,Architect,,,,978312000000422296,,,,Delhi,Delhi,,,,,,,,,,,,,,,,,,978312000000422296,
adf06d56-4dd1-48c8-aa53-477d01c2deb9,Porsche Design,MetaliaBigin,,,Architect,,,,978312000000422291,,,,Delhi,Delhi,,,,,,,,,,,,,,,,,,978312000000422291,
2543f5de-8fb4-43cf-ad57-4a2c4eb78099,Porthole,MetaliaBigin,,,Architect,,,,978312000000422313,,,,Delhi,Delhi,,,,,,,,,,,,,,,,,,978312000000422313,
5ae4dbb3-29f4-4dc2-b7a2-dfc809ba49cb,Privee,MetaliaBigin,,,Archietct,,,,978312000000422310,,,,Mumbai,Maharashtra,,,,,,,,,,,,,,,,,,978312000000422310,
b65e9163-e244-40fa-ab83-66525154e849,Projects Ltd .,MetaliaBigin,,,,,,,978312000000440399,,,,,,,,,,,,,,,,,,,,,,,978312000000440399,
bc122dbf-e277-4235-90c6-e6e41be069fa,Puneet narang panipat,MetaliaBigin,,,,,,,978312000000433429,,,,,,,,,,,,,,,,,,,,,,,978312000000433429,
77e909d0-544f-4ca7-aabe-e790747b22f3,QED,MetaliaBigin,,,Architect,,,,978312000000439694,,,,,,,,,,,,,,,,,,,,,,,978312000000439694,
b96fe70a-86f4-4654-a600-0acf06116abb,Qube Design,MetaliaBigin,,,Architect,,6fe1851e-2525-4ddb-b1b3-7e11540787dc,,978312000000422301,,,,Delhi,Delhi,,,,,,,,,,,,,,,,,,978312000000422301,
6f722e47-d55e-492c-a60a-0697fb0723c5,Rajshree Builders,MetaliaBigin,,,Developer,,08e34de9-42cc-4e8d-b48b-8e38589b3d47,,978312000000447257,,,,,,,,,,,,,,,,,,,,,,,978312000000447257,
3966d42f-57f5-4c95-8cc4-7314b82f423a,Resonate Designs,MetaliaBigin,,,Architect,,,,978312000000470661,,,,,,,,,,,,,,,,,,,,,,,978312000000470661,
dc472cb2-04c9-4cd9-9e4c-7f4f872197cf,Reza Kabul,MetaliaBigin,,,Architect,,c96d633e-4fda-48d4-9ac9-b665e06a6e75,,978312000000447252,,,,,,,,,,,,,,,,,,,,,,,978312000000447252,
91ab1432-d05a-4689-ac0b-0bdb657d429d,Rishabh Jain & Associates,MetaliaBigin,,,,,,,978312000000439695,,,,Delhi,,,,,,,,,,,,,,,,,,,978312000000439695,
f1263f43-e4b3-4a78-aa9c-e35d9e15426e,Ruchir Arch,MetaliaBigin,,,,,,,978312000000439696,,,,Delhi,,,,,,,,,,,,,,,,,,,978312000000439696,
ba0b5afa-107e-4dda-b129-d22169dce9db,SDG,MetaliaBigin,,,,,,,978312000000440477,,,,,,,,,,,,,,,,,,,,,,,978312000000440477,
ad422976-bd83-47b4-a13b-9d9f35d27f9c,SGA Architects,MetaliaBigin,,,Architect,,102690f2-d36e-4c58-9dca-475fedf97583,,978312000000422289,,,,Delhi,Delhi,,,,,,,,,,,,https://www.instagram.com/sgaarchitects/,,,,,,978312000000422289,
5c87f51a-6edc-482d-9ffa-1fad962c05ee,SSDA,MetaliaBigin,,,,,,,978312000000439702,,,,Delhi,,,,,,,,,,,,,,,,,,,978312000000439702,
07f620bf-f608-48c2-9a3f-96f15932e563,Sambhav,MetaliaBigin,,,Architect,,ca9cd32d-130c-4bb2-ab6e-d0051c44641d,,978312000000422315,,,,Mumbai,Maharashtra,,,,,,,,,,,,,,,,,,978312000000422315,
0592d7d2-1d67-471a-b1fe-bc5434df9773,Sanjay Puri,MetaliaBigin,,,Architect,,995f5deb-cadd-4984-8b25-820c96d36f46,,978312000000447254,,,,,,,,,,,,,,,,,,,,,,,978312000000447254,
65aec4f5-b8c9-47e2-b93d-29c3a0ff462d,Sapra Engineers,MetaliaBigin,,,,,,,978312000000439697,,,,Delhi,,,,,,,,,,,,,,,,,,,978312000000439697,
9b9bf086-e77c-4469-878c-4bb7cc3cff8b,Satya Sai Hotel,MetaliaBigin,,,,,,,978312000000468251,,,,,,,,,,,,,,,,,,,,,,,978312000000468251,
21dd71af-8376-461d-8900-9b46f44e8ded,Shaheer Assocites,MetaliaBigin,,,,,,,978312000000439698,,,,Delhi,,,,,,,,,,,,,,,,,,,978312000000439698,
6bfe7c1f-9880-481d-9036-37b1d5a7237f,Shree Krishna Group,MetaliaBigin,,,Developer,,126c2270-f352-4ef0-8995-fc2ed070b3a7,,978312000000447246,,,,,,,,,,,,,,,,,,,,,,,978312000000447246,
7ede10c7-a50e-439c-a692-1ce039a47ba9,Simran Boparai Archtelier,MetaliaBigin,,,,,,,978312000000439699,,,,CDH,,,,,,,,,,,,,,,,,,,978312000000439699,
f754e292-d3cc-485d-8397-823421f1a228,Space Design,MetaliaBigin,,,Architect,,,,978312000000439700,,,,Gurgaon,,,,,,,,,,,,,,,,,,,978312000000439700,
d49bcda9-0d21-46fa-8384-e7e6b8150636,Space Matters,MetaliaBigin,,,,,,,978312000000439701,,,,Delhi,,,,,,,,,,,,,,,,,,,978312000000439701,
3c3ae9e4-bad1-4dd5-8a85-3f2314755b4e,Spaces architecture studio,MetaliaBigin,,,Architect,,,,978312000000422282,,,,Delhi,Delhi,,,,,,,,,,,,,,,,,,978312000000422282,
c17c82d4-7050-4107-869f-591e649f6868,Studio Constantine,MetaliaBigin,,,Architect,,,,978312000000422295,,,,Delhi,Delhi,,,,,,,,,,,,https://www.instagram.com/studioconstantine/,,,,,,978312000000422295,
6d0b9bae-8e0c-4e7b-89f4-b3f9ef196aa7,Studio Mathema,MetaliaBigin,,,,,,,978312000000439704,98100 93705,['Industrial'],,Gurgaon,,,,,,,,,,,,,,,98100 93705,,,,978312000000439704,
8cd80ab8-9958-4236-b749-72c776693860,Studio Prefix,MetaliaBigin,,,,,,,978312000000439705,,,,Delhi,,,,,,,,,,,,,,,,,,,978312000000439705,
c1a9c9a9-0359-4549-9079-02518a28d9e2,Studio Srijan,MetaliaBigin,,,Architect,,,,978312000000439706,,,,Delhi,,,,,,,,,,,,,,,,,,,978312000000439706,
cfa385ff-97dc-4f44-b018-9a56269d4064,Studio Zoera,MetaliaBigin,,,,,,,978312000000439707,,,,Gurgaon,,,,,,,,,,,,,,,,,,,978312000000439707,
01c27632-f0ea-4ba6-9b06-62ff8f5e08d1,Studio lotus,MetaliaBigin,,,,,0eac6746-c340-42f2-8195-f0c9a9a4f936,,978312000000439703,,,,Delhi,,,,,,,,,,,,,,,,,,,978312000000439703,
20d2b1ad-5c55-4faa-bd5d-69085409e8bd,Svamipva Architect,MetaliaBigin,,,Architect,,,,978312000000447242,,,,,,,,,,,,,,,,,,,,,,,978312000000447242,
8da6a2c5-83be-42ea-90db-b4918791f484,Symbosis,MetaliaBigin,,,,,,,978312000000439708,,,,Noida,,,,,,,,,,,,,,,,,,,978312000000439708,
d1c3eeb5-dc3e-4200-bb6e-b6a8301ea84c,Synthsis,MetaliaBigin,,,,,,,978312000000439709,,,,Delhi,,,,,,,,,,,,,,,,,,,978312000000439709,
dec3ea8e-7bbd-4847-83e9-84a977beb5fd,TARC,MetaliaBigin,,,,,,,978312000000439710,,,,Delhi,,,,,,,,,,,,,,,,,,,978312000000439710,
0ab7fc71-16c8-41ee-9596-7c8b99b018c9,THE BRIJ,MetaliaBigin,,,,,e4dd6aa0-34b5-4a74-a550-cd4bc20a2a9d,,978312000000440460,,,,,,,,,,,,,,,,,,,,,,,978312000000440460,
7fa8f7e2-6251-40fd-ba5f-e7102b2c61ff,TOD Design,MetaliaBigin,,,Architect,,,,978312000000422292,,,,Delhi,Delhi,,,,,,,,,,,,https://www.instagram.com/tod.innovations/,,,,,,978312000000422292,
faf9efbc-30a0-42af-85c9-014fa958136e,TPA,MetaliaBigin,,,,,4b2c2084-1b7e-4ea3-bb4b-dbbdc550825f,,978312000000439713,,,,Gurgaon,,,,,,,,,,,,,,,,,,,978312000000439713,
0366e418-3e59-4cc3-9a49-4fb99db52da9,Tatva Interiors,MetaliaBigin,,,Architect,,,,978312000000470662,,,,,,,,,,,,,,,,,,,,,,,978312000000470662,
a72c0f94-11cf-4a4e-9f73-e1311e870f4d,Tech Arch,MetaliaBigin,,,,,,,978312000000439711,,,,Gaurgaon,,,,,,,,,,,,,,,,,,,978312000000439711,
36f4c7e3-edaa-48c9-8b20-502f9c6938ad,Test Company,MetaliaBigin,Test Company  for validation,,,,,,978312000000461507,,,,,,,,,,,,,,,,,,,,,,,978312000000461507,
08d77150-ef40-43a3-be60-d6e336d5fa03,The Design Cube,MetaliaBigin,,,,,,,978312000000439712,,,,Ludhiana,,,,,,,,,,,,,,,,,,,978312000000439712,
b02f4b51-087c-49bf-aa56-b829496dcac5,The Nest,MetaliaBigin,,,,,,,978312000000468246,,,,,,,,,,,,,,,,,,,,,,,978312000000468246,
5545bf6d-be59-4273-af69-31a39a2d6245,The Wadhwa Grouro Landmarks Planned With Passion,MetaliaBigin,,,,,aa77ac60-8ef8-41fd-ba1e-31f499995f0e,,978312000000440379,,,,,,,,,,,,,,,,,,,,,,,978312000000440379,
8738da7c-90f6-4135-a4e4-27217ce26ff6,Transform,MetaliaBigin,,,,,,,978312000000439714,,,,,,,,,,,,,,,,,,,,,,,978312000000439714,
2bf43fe6-f211-4d66-beb0-24329c5642a8,Transform Design,MetaliaBigin,,,Architect,,,,978312000000422312,,,,Chennai,Tamil Nadu,,,,,,,,,,,,,,,,,,978312000000422312,
ac93087f-a9b6-484b-9af1-c76afefa95a0,Transform/Prabpal Kohli,MetaliaBigin,,,Architect,,,,978312000000470663,,,,,,,,,,,,,,,,,,,,,,,978312000000470663,
660c73b7-f790-4a63-83a1-58a27de052a4,Tru Key,MetaliaBigin,,,,,,,978312000000439715,,,,Gurgaon,,,,,,,,,,,,,,,,,,,978312000000439715,
78bdd9c1-fe88-46db-80e0-5e39f8ba046f,Uncut Design,MetaliaBigin,,,Architect,,121491b6-381d-4951-a951-9bf3087a09ed,,978312000000422320,,,,Chennai,Tamil Nadu,,,,,,,,,,,,,,,,,,978312000000422320,
00120a91-4f2a-4f01-90d2-ae53dcb8f123,Unorthodox Design Studio,MetaliaBigin,,,Architect,,,,978312000000422281,,,,Delhi,Delhi,,,,,,,,,,,,https://www.instagram.com/un.orthodoxdesigns/,,,,,,978312000000422281,
428b6eb5-341b-433c-b39b-ccf58342ed71,VAAS Studio,MetaliaBigin,,,Architect,,,,978312000000422300,,,,Delhi,Delhi,,,,,,,,,,,,,,,,,,978312000000422300,
956e5d0a-3856-42f2-83a9-6616500d91f3,VK Developers,MetaliaBigin,,,Developer,,,,978312000000447256,,,,,,,,,,,,,,,,,,,,,,,978312000000447256,
7c80342c-0ba5-4557-b81f-6f5ff9c22418,Vanbros,MetaliaBigin,,,,,,,978312000000468245,,,,,,,,,,,,,,,,,,,,,,,978312000000468245,
0bf2fa22-abbd-469e-abe2-8c1a1ed2dc1c,Vipin Goel,MetaliaBigin,,,,,,,978312000000440494,,,,,,,,,,,,,,,,,,,,,,,978312000000440494,
f81271bc-58c0-46d5-ae22-33f97538be4c,Visarg,MetaliaBigin,,,Architect,,,,978312000000422302,,,,Delhi,Delhi,,,,,,,,,,,,,,,,,,978312000000422302,
20facfc0-3bc8-47e8-871f-fdc3e94f3322,Visarg Design Studio,MetaliaBigin,,,Architect,,,,978312000000470664,,,,,,,,,,,,,,,,,,,,,,,978312000000470664,
d2e466b8-2b44-4c75-ac1e-78368d0ab70d,W M A,MetaliaBigin,,,,,,,978312000000433130,,,,,,,,,,,,,,,,,,,,,,,978312000000433130,
0a18a48c-7a24-46d8-8655-6a7c19bd126f,WHITE STUDI ARCHS,MetaliaBigin,,,,,167b3d91-9c9a-4230-bde7-0b47bfb93a4a,,978312000000433002,,,,,,,,,,,,,,,,,,,,,,,978312000000433002,
6f5cd471-f847-46f1-a599-4b41653a4f93,WMA,MetaliaBigin,,,Architect,,,,978312000000422319,,,,Delhi,Delhi,,,,,,,,,,,,,,,,,,978312000000422319,
df8dbbec-fa17-4e24-98e0-4b40ee489ebd,Wadhwa Group,MetaliaBigin,,,Developer,,aa77ac60-8ef8-41fd-ba1e-31f499995f0e,,978312000000447251,,,,,,,,,,,,,,,,,,,,,,,978312000000447251,
74467012-c29b-4d69-8187-a0344779c09c,Wadhwa group mumbai,MetaliaBigin,,,,,aa77ac60-8ef8-41fd-ba1e-31f499995f0e,,978312000000437489,,,,,,,,,,,,,,,,,,,,,,,978312000000437489,
16694722-0ae3-4fbe-9b14-028cb668a855,Wagma,MetaliaBigin,,,,,,,978312000000439716,,,,Gurgaon,,,,,,,,,,,,,,,,,,,978312000000439716,
3006a906-67b0-41ed-a0d4-cc74aa965497,White Studio Architects,MetaliaBigin,,,Architect,,167b3d91-9c9a-4230-bde7-0b47bfb93a4a,,978312000000422294,,,,Delhi,Delhi,,,,,,,,,,,,https://www.instagram.com/whitestudioarchitects/,,,,,,978312000000422294,
c89d27a4-6762-4622-953c-18510997e385,ZED Lab,MetaliaBigin,,,,,,,978312000000439717,,,,Delhi,,,,,,,,,,,,,,,,,,,978312000000439717,
4f883c9c-9229-4d96-b6bc-5aa41d80e118,abu palace,MetaliaBigin,,,Hotels/Hospitality,,,,978312000000472540,,,,,,,,,,,,,,,,,,,,,,,978312000000472540,
661eb00c-a5e4-4be1-a416-07fe73704ce1,design 21,MetaliaBigin,,,,,,,978312000000439176,,,,,,,,,,,,,,,,,,,,,,,978312000000439176,
697d0e54-d2d0-412f-8a57-8c2aad44f7e6,essentia@,MetaliaBigin,,,,,0e504fc0-8e8d-45fe-823a-a50600f69c56,,978312000000440438,,,,,,,,,,,,,,,,,,,,,,,978312000000440438,
03d0b7f6-08e3-466c-ba93-3fe07254841c,floor and furnish,MetaliaBigin,,,,,,,978312000000439171,,,,,,,,,,,,,,,,,,,,,,,978312000000439171,
e348d05f-6c29-4185-9dfc-51c1bbd180e1,kmv contracts,MetaliaBigin,,,,,0476f043-a7c8-4b69-9e69-8e20cf7ffd9a,,978312000000439214,,,,,,,,,,,,,,,,,,,,,,,978312000000439214,
d871ad11-fdf0-4dca-8a32-7c1e3f6c2afb,line & spaces,MetaliaBigin,,,Architects,,,,978312000000484071,,['Residential'],,Delhi,,,,,,,,,,,,,,,,,,,978312000000484071,
720e7698-af08-48ec-a93c-a9413fa81554,madhusudan grouo,MetaliaBigin,,,Real Estate Developers/Builders,,,,978312000000472233,,,,,,,,,,,,,,,,,,,,,,,978312000000472233,
ecd3c213-a7bc-4050-aae0-92babf57a8ee,sanskar home,MetaliaBigin,,,,,,,978312000000468026,,,,,,,,,,,,,,,,,,,,,,,978312000000468026,
60cf5791-e3c0-4d7a-94d0-438e4ded985c,sukride builder,MetaliaBigin,,,Real Estate Developers/Builders,,,,978312000000490067,,,,Delhi,,,,,,,,,,,,,,,,,,,978312000000490067,
40b0e26d-f8f1-45e8-8ef8-651c2d00b8ea,the iyal atelier,MetaliaBigin,,theiyalatelier@gmail.com,Architects,,,,978312000000477717,,,,,,,,,,,,,,,,,,,,,,,978312000000477717,
c6ecdb68-74ec-4b4c-b844-3b51cee937b7,unity group,MetaliaBigin,,,Real Estate Developers/Builders,,29a797d9-d349-4fb4-9c2d-8fa6d317a91c,,978312000000490125,,,,,,,,,,,,,,,,,,,,,,,978312000000490125,
7f1565f2-3697-41f6-b5ec-b47147ce0cf4,uppals,MetaliaBigin,,,Real Estate Developers/Builders,,,,978312000000537347,,,,Delhi,,,,,,,,,,,,,,,,,,,978312000000537347,
337aad07-d0cd-42bd-bfd9-5c323bcea978,AllHome,Rolodex,"Bharat Founders Fund is an early-stage venture group of the most successful Indian entrepreneurs globally, comprising of Founders who are willing to back and support the future founders building for Bharat.",allhome.in,,,17a8c0aa-71d4-4e38-a971-ef02cd425b4c,,,,,,,,,,,,,org_2x7MLX8quU7NSiirWdUVX0RLCbz,"Bharat Founders Fund is an early-stage venture group of the most successful Indian entrepreneurs globally, comprising of Founders who are willing to back and support the future founders building for Bharat.",https://cdn.rolodexcrm.com/img/org_2x7MLX8quU7NSiirWdUVX0RLCbz/company/17a8c0aa-71d4-4e38-a971-ef02cd425b4c-original-aPbUF.png,,allhomebharatplatform,,,,,,2.0,,,17a8c0aa-71d4-4e38-a971-ef02cd425b4c
dff01de9-34e9-498b-8f15-2db5d9d316a4,Avarchar,Rolodex,,avarchar.com,,,365c6b90-d780-4a99-8e99-bd6a4b070cfd,,,,,,,,,,,,,org_2x7MLX8quU7NSiirWdUVX0RLCbz,,,,,,,,,,,,,365c6b90-d780-4a99-8e99-bd6a4b070cfd
6311b187-1833-4e7a-af2c-a68bc2ad3e06,Avendus,Rolodex,,avendus.com,,,83e0ef8e-d353-42b7-a0ef-ee9136478b77,,,,,,,,,,,,,org_2x7MLX8quU7NSiirWdUVX0RLCbz,,https://cdn.rolodexcrm.com/img/org_2x7MLX8quU7NSiirWdUVX0RLCbz/company/83e0ef8e-d353-42b7-a0ef-ee9136478b77-original-l01zr.png,,avendus,,,,,,51.0,,,83e0ef8e-d353-42b7-a0ef-ee9136478b77
fc3e768c-9364-43e4-8677-32f7c95bd93d,Bessemer Venture Partners,Rolodex,"Bessemer Venture Partners helps entrepreneurs lay strong foundations to build and forge long-standing companies. With more than 135 IPOs and 200 portfolio companies in the enterprise, consumer, and healthcare spaces, Bessemer supports founders and CEOs from their early days through every stage of growth. Bessemer’s global portfolio has included Pinterest, Shopify, Twilio, Yelp, LinkedIn, PagerDuty, DocuSign, Wix, Fiverr, and Toast, and has $20 billion of assets under management. Bessemer has teams of investors and partners located in Tel Aviv, Silicon Valley, San Francisco, New York, London, Hong Kong, Boston, and Bangalore. Born from innovations in steel more than a century ago, Bessemer’s storied history has afforded its partners the oppo",bvp.com,,,4f23c845-74e5-4e0a-94af-cdf36d6a82e9,,,,,,,,,,San Francisco,California,US,org_2x7MLX8quU7NSiirWdUVX0RLCbz,"Bessemer Venture Partners helps entrepreneurs lay strong foundations to build and forge long-standing companies. With more than 135 IPOs and 200 portfolio companies in the enterprise, consumer, and healthcare spaces, Bessemer supports founders and CEOs from their early days through every stage of growth. Bessemer’s global portfolio has included Pinterest, Shopify, Twilio, Yelp, LinkedIn, PagerDuty, DocuSign, Wix, Fiverr, and Toast, and has $20 billion of assets under management. Bessemer has teams of investors and partners located in Tel Aviv, Silicon Valley, San Francisco, New York, London, Hong Kong, Boston, and Bangalore. Born from innovations in steel more than a century ago, Bessemer’s storied history has afforded its partners the oppo",https://cdn.rolodexcrm.com/img/org_2x7MLX8quU7NSiirWdUVX0RLCbz/company/4f23c845-74e5-4e0a-94af-cdf36d6a82e9-original-Rw3JS.png,,bessemer-venture-partners,,,US,,,11.0,,,4f23c845-74e5-4e0a-94af-cdf36d6a82e9
c8f53726-4f25-45dd-87fe-dd71cf2244a7,Bharat Founders Fund,Rolodex,"Bharat Founders Fund is an early-stage venture group of the most successful Indian entrepreneurs globally, comprising of Founders who are willing to back and support the future founders building for Bharat.",bharatplatform.com,,,0dfc0db8-b68f-4490-b9a2-a879df95b93a,,,,,,,,,,,,,org_2x7MLX8quU7NSiirWdUVX0RLCbz,"Bharat Founders Fund is an early-stage venture group of the most successful Indian entrepreneurs globally, comprising of Founders who are willing to back and support the future founders building for Bharat.",https://cdn.rolodexcrm.com/img/org_2x7MLX8quU7NSiirWdUVX0RLCbz/company/0dfc0db8-b68f-4490-b9a2-a879df95b93a-original-3tulN.png,,bharatfoundersfund,,,,,,2.0,,,0dfc0db8-b68f-4490-b9a2-a879df95b93a
90b07bcf-5c8c-4fec-8bae-e43d10e59229,Cashify,Rolodex,"India’s first and largest end-to-end smartphone solution provider. 
- Use our buying guide to purchase the smartphone that’s best suited for you. 
- Buy the trendiest high quality mobile accessories that give you the edge.
- Get your smartphone repaired at the most affordable prices by our super-skilled technical team.
- Shop from our wide range of refurbished smartphones at exciting prices and 6 months warranty.
- Sell your used smartphone right from your doorstep and get instant cash on the spot.

Get in touch with us for everything mobile and find services at zero hassles.",cashify.in,,,3e87510b-dc75-45a1-ae1e-901bf4a65d06,,,,,,,,,,Gurgaon,Haryana,IN,org_2x7MLX8quU7NSiirWdUVX0RLCbz,"India’s first and largest end-to-end smartphone solution provider. 
- Use our buying guide to purchase the smartphone that’s best suited for you. 
- Buy the trendiest high quality mobile accessories that give you the edge.
- Get your smartphone repaired at the most affordable prices by our super-skilled technical team.
- Shop from our wide range of refurbished smartphones at exciting prices and 6 months warranty.
- Sell your used smartphone right from your doorstep and get instant cash on the spot.

Get in touch with us for everything mobile and find services at zero hassles.",https://cdn.rolodexcrm.com/img/org_2x7MLX8quU7NSiirWdUVX0RLCbz/company/3e87510b-dc75-45a1-ae1e-901bf4a65d06-original-gaYzn.png,,cashify,,,IN,,,501.0,,,3e87510b-dc75-45a1-ae1e-901bf4a65d06
31738177-2d19-4115-8dc8-b5dd7789ac6c,Colour Coats,Rolodex,"Colour Coats is a strategic partner of Italcoats – a pioneer in wood coatings from Italy. We are a premium contracting firm based in Mumbai that specializes in Italian grade wood coatings and wall finishes. 

With an experience for over 25 years, we have completed exclusive projects for top interior designers and architects. After our successful merger with ICA Pidilite, we have also collaborated with brands such as Elekta, Cement Designs, Rivedil, Oikos, and San Marco. As a company, we choose sustainable and environment-friendly products for a contemporary living. We abide by the rules of uncompromised quality standards to ensure the best results for your dream space.

Colour Coats is a proud employer of over 1000 employees who are dedicat",colourcoats.in,,,314cee21-afa7-4f46-b1d0-7360fb35a8f7,,,,,,,,,,Mumbai,Maharashtra ,IN,org_2x7MLX8quU7NSiirWdUVX0RLCbz,"Colour Coats is a strategic partner of Italcoats – a pioneer in wood coatings from Italy. We are a premium contracting firm based in Mumbai that specializes in Italian grade wood coatings and wall finishes. 

With an experience for over 25 years, we have completed exclusive projects for top interior designers and architects. After our successful merger with ICA Pidilite, we have also collaborated with brands such as Elekta, Cement Designs, Rivedil, Oikos, and San Marco. As a company, we choose sustainable and environment-friendly products for a contemporary living. We abide by the rules of uncompromised quality standards to ensure the best results for your dream space.

Colour Coats is a proud employer of over 1000 employees who are dedicat",https://cdn.rolodexcrm.com/img/org_2x7MLX8quU7NSiirWdUVX0RLCbz/company/314cee21-afa7-4f46-b1d0-7360fb35a8f7-original-bnK3l.png,,colourcoats,,,IN,,,51.0,,,314cee21-afa7-4f46-b1d0-7360fb35a8f7
c1aed767-3efa-48d1-8fd6-d04a691fc909,Jiraaf - Powered by AI Growth,Rolodex,"Jiraaf: Online Bond Platform for high-yield, fixed-income investments. 

We at Jiraaf, want to help individual investors earn risk-adjusted high returns by participating in high-quality listed curated investment opportunities. Through our user-friendly digital online bond platform, we provide individual investors seamless access to an array of handpicked investment opportunities. Our online bond platform complies with the guidelines set by the Securities Exchange Board of India (SEBI) and RBI. 

Join us at Jiraaf and embark on a transformative journey toward financial prosperity. Let's redefine wealth creation together!",jiraaf.com,,,f3d5299d-3576-441a-8821-3fde6317d635,,,,,,,,,,Bengaluru,Karnataka,IN,org_2x7MLX8quU7NSiirWdUVX0RLCbz,"Jiraaf: Online Bond Platform for high-yield, fixed-income investments. 

We at Jiraaf, want to help individual investors earn risk-adjusted high returns by participating in high-quality listed curated investment opportunities. Through our user-friendly digital online bond platform, we provide individual investors seamless access to an array of handpicked investment opportunities. Our online bond platform complies with the guidelines set by the Securities Exchange Board of India (SEBI) and RBI. 

Join us at Jiraaf and embark on a transformative journey toward financial prosperity. Let's redefine wealth creation together!",https://cdn.rolodexcrm.com/img/org_2x7MLX8quU7NSiirWdUVX0RLCbz/company/f3d5299d-3576-441a-8821-3fde6317d635-original-T0S5y.png,,jiraafofficial,,,IN,,,51.0,,,f3d5299d-3576-441a-8821-3fde6317d635
821aa1dc-f2e8-4cd4-b7dc-593c86f9e85c,Langchain,Rolodex,"LetzFair is the app and platform for Networking and Matchmaking designed to revolutionize the event industry.Conceived not as an accessory tool, but as a technology built to actively contribute to event management, LetzFair provides organizers of trade shows, congresses, and communities with a cutting-edge solution that anticipates innovation.The LetzFair app and platform is a scalable, fully customizable tool capable of responding to the needs and goals of event managers. It centralizes all organizational phases - from registration to post-event follow-up - functioning either as an all-in-one solution or integrating seamlessly with third-party software already in use.Leveraging AI and continuously evolving machine learning, the platform de",langchain.dev,,,6f233d25-2167-4329-ba51-50590cd8412e,,,,,,,,,,Italia,Italia,IT,org_2x7MLX8quU7NSiirWdUVX0RLCbz,"LetzFair is the app and platform for Networking and Matchmaking designed to revolutionize the event industry.Conceived not as an accessory tool, but as a technology built to actively contribute to event management, LetzFair provides organizers of trade shows, congresses, and communities with a cutting-edge solution that anticipates innovation.The LetzFair app and platform is a scalable, fully customizable tool capable of responding to the needs and goals of event managers. It centralizes all organizational phases - from registration to post-event follow-up - functioning either as an all-in-one solution or integrating seamlessly with third-party software already in use.Leveraging AI and continuously evolving machine learning, the platform de",,,27161023,,,,,,2.0,,,6f233d25-2167-4329-ba51-50590cd8412e
60a7b37c-9b23-4841-8a80-0561e10f7d74,Leena AI,Rolodex,"Leena AI's Agentic AI is designed for global enterprises. Equipped with Leena AI’s proprietary large language model, WorkLM™, Leena AI empowers enterprises worldwide to redefine how employees get work done, delivering a transformative impact on productivity and efficiency. 

Our Gen AI agent reduces IT, HR, and Finance tickets and ensures a unified experience for all enterprise employees, by bringing their entire techstack together. We guarantee a 70% self-service ratio in the contract.

WorkLM, built on Leena AI's breakthrough language model architecture, possesses an unparalleled predictive text generation capability, producing human-like responses in context. This empowers employees with a versatile toolset to accomplish tasks with excep",leena.ai,,,5b4784b8-3ecc-4f8c-9dd5-ed9c18636220,,,,,,,,,,San Francisco,California,US,org_2x7MLX8quU7NSiirWdUVX0RLCbz,"Leena AI's Agentic AI is designed for global enterprises. Equipped with Leena AI’s proprietary large language model, WorkLM™, Leena AI empowers enterprises worldwide to redefine how employees get work done, delivering a transformative impact on productivity and efficiency. 

Our Gen AI agent reduces IT, HR, and Finance tickets and ensures a unified experience for all enterprise employees, by bringing their entire techstack together. We guarantee a 70% self-service ratio in the contract.

WorkLM, built on Leena AI's breakthrough language model architecture, possesses an unparalleled predictive text generation capability, producing human-like responses in context. This empowers employees with a versatile toolset to accomplish tasks with excep",https://cdn.rolodexcrm.com/img/org_2x7MLX8quU7NSiirWdUVX0RLCbz/company/5b4784b8-3ecc-4f8c-9dd5-ed9c18636220-original-DXFUV.png,,leena-ai,,,US,,,201.0,,,5b4784b8-3ecc-4f8c-9dd5-ed9c18636220
5b1e5e53-9a87-4574-9cc0-bbe33b22a053,Lentra,Rolodex,"Founded in 2019, Lentra is enabling banks in democratising digital lending through its SaaS platform. It empowers banks (& NBFCs) to create custom loan products and enhance customer experiences, through its API-driven modular architecture. Currently, Lentra's digital lending platform serves over 50 banks, has processed over $20 billion worth of loan applications, with 2 million loans being processed every month. Lentra supports its customers in expanding their reach, reducing non-performing assets, optimising operational efficiencies, and using Pay-as-you-go pricing for their growth. Lentra is backed by investors like BVP, Citi, HDFC, MUFG, SIG & Vy. To read more, please visit: https://Lentra.ai/
",lentra.ai,,,ab0c082e-5034-47c2-bdb0-f869ef22b607,,,,,,,,,,Pune,Maharashtra,IN,org_2x7MLX8quU7NSiirWdUVX0RLCbz,"Founded in 2019, Lentra is enabling banks in democratising digital lending through its SaaS platform. It empowers banks (& NBFCs) to create custom loan products and enhance customer experiences, through its API-driven modular architecture. Currently, Lentra's digital lending platform serves over 50 banks, has processed over $20 billion worth of loan applications, with 2 million loans being processed every month. Lentra supports its customers in expanding their reach, reducing non-performing assets, optimising operational efficiencies, and using Pay-as-you-go pricing for their growth. Lentra is backed by investors like BVP, Citi, HDFC, MUFG, SIG & Vy. To read more, please visit: https://Lentra.ai/
",https://cdn.rolodexcrm.com/img/org_2x7MLX8quU7NSiirWdUVX0RLCbz/company/ab0c082e-5034-47c2-bdb0-f869ef22b607-original-1pBZJ.png,,lentra,,,IN,,,501.0,,,ab0c082e-5034-47c2-bdb0-f869ef22b607
961ada37-a3fe-4edb-aa58-09fb5a140c39,Mail,Rolodex,"The only newsletter platform that helps you grow, monetize, and manage all your workflows in one place",mail.beehiiv.com,,,b8d8fc69-4023-4f27-947c-1587a73ed4e7,,,,,,,,,,New York,US,,org_2x7MLX8quU7NSiirWdUVX0RLCbz,"The only newsletter platform that helps you grow, monetize, and manage all your workflows in one place",https://cdn.rolodexcrm.com/img/org_2x7MLX8quU7NSiirWdUVX0RLCbz/company/b8d8fc69-4023-4f27-947c-1587a73ed4e7-original-HuW9m.png,,beehiiv,,,,,,51.0,,,b8d8fc69-4023-4f27-947c-1587a73ed4e7
eef0a148-2b50-4127-9110-cb830ce60ac9,Metalia India,Rolodex,"METALIA (Me-Taa-Lia) is India's leading tailor-made facade specialist, providing bespoke architectural envelopes for luxury residential exteriors. From aluminium fins, corten steel meshes, and fluted metal panels to three-dimensional, organic, and parametric solutions, we offer a wide range in a variety of materials, colours, textures, and finishes for each system.",metaliaindia.com,,,045f4eca-c464-44d5-ada1-29c2a771d81e,,,,,,,,,,,,,org_2x7MLX8quU7NSiirWdUVX0RLCbz,"METALIA (Me-Taa-Lia) is India's leading tailor-made facade specialist, providing bespoke architectural envelopes for luxury residential exteriors. From aluminium fins, corten steel meshes, and fluted metal panels to three-dimensional, organic, and parametric solutions, we offer a wide range in a variety of materials, colours, textures, and finishes for each system.",https://cdn.rolodexcrm.com/img/org_2x7MLX8quU7NSiirWdUVX0RLCbz/company/045f4eca-c464-44d5-ada1-29c2a771d81e-original-FnKcA.png,,metalia-india,,,,,,11.0,,,045f4eca-c464-44d5-ada1-29c2a771d81e
9a5056c8-9d4b-4c3f-b675-cb27618fbd90,MyGlamm | Good Glamm Group,Rolodex,"MyGlamm is India’s fastest growing direct-to-consumer beauty brand. MyGlamm embraces the philosophy of building a community with its users, engaging with them and eventually co-creating products with them. In July 2020, MyGlamm acquired POPxo making the MyGlamm - POPxo combine, the largest Content to Community to Commerce platform in India with 60 million monthly active users and 100 million monthly video views. With over 800 SKUs across makeup, skincare and personal care, MyGlamm Beauty Products feature advanced, rich, feel-good formulas that are 100% cruelty-free, embrace Clean Beauty, and have skin-friendly ingredients. MyGlamm has over 20,000 offline points of sales across 100 cities of India. MyGlamm uses a combination of technology, c",myglamm.com,,,f7514b13-b849-49b8-90cc-b704124907eb,,,,,,,,,,Mumbai,Maharashtra,IN,org_2x7MLX8quU7NSiirWdUVX0RLCbz,"MyGlamm is India’s fastest growing direct-to-consumer beauty brand. MyGlamm embraces the philosophy of building a community with its users, engaging with them and eventually co-creating products with them. In July 2020, MyGlamm acquired POPxo making the MyGlamm - POPxo combine, the largest Content to Community to Commerce platform in India with 60 million monthly active users and 100 million monthly video views. With over 800 SKUs across makeup, skincare and personal care, MyGlamm Beauty Products feature advanced, rich, feel-good formulas that are 100% cruelty-free, embrace Clean Beauty, and have skin-friendly ingredients. MyGlamm has over 20,000 offline points of sales across 100 cities of India. MyGlamm uses a combination of technology, c",https://cdn.rolodexcrm.com/img/org_2x7MLX8quU7NSiirWdUVX0RLCbz/company/f7514b13-b849-49b8-90cc-b704124907eb-original-hBYqM.png,,myglamm,,,IN,,,501.0,,,f7514b13-b849-49b8-90cc-b704124907eb
5eb62d6c-a10b-434a-b0bd-f5fbc04bd4ab,Nova Benefits,Rolodex,"Nova Benefits is the one stop tech platform for providing the best health and wellness benefits to your employees. We find the best deals for your company and make sure your employees can access them easily. All while ensuring there is no administrative overhead for your HR.To work with us, apply here:https://nova-benefits.skillate.com/",bit.ly,,,ddb921b8-9aab-40f6-be67-579b1becd0b7,,,,,,,,,,Bengaluru,Karnataka,IN,org_2x7MLX8quU7NSiirWdUVX0RLCbz,"Nova Benefits is the one stop tech platform for providing the best health and wellness benefits to your employees. We find the best deals for your company and make sure your employees can access them easily. All while ensuring there is no administrative overhead for your HR.To work with us, apply here:https://nova-benefits.skillate.com/",,,nova-benefits,,,IN,,,51.0,,,ddb921b8-9aab-40f6-be67-579b1becd0b7
78a0f02e-eca8-4378-bebb-4007d031ac89,Oracle,Rolodex,"We’re a cloud technology company that provides organizations around the world with computing infrastructure and software to help them innovate, unlock efficiencies and become more effective. We also created the world’s first – and only – autonomous database to help organize and secure our customers’ data.
 
Oracle Cloud Infrastructure offers higher performance, security, and cost savings. It is designed so businesses can move workloads easily from on-premises systems to the cloud, and between cloud and on-premises and other clouds. Oracle Cloud applications provide business leaders with modern applications that help them innovate, attain sustainable growth, and become more resilient. 
 
The work we do is not only transforming the world of b",rolodexcrm.com,,,b666d3dd-c139-4b62-a186-87b8174e799a,,,,,,,,,,Austin,Texas,US,org_2x7MLX8quU7NSiirWdUVX0RLCbz,"We’re a cloud technology company that provides organizations around the world with computing infrastructure and software to help them innovate, unlock efficiencies and become more effective. We also created the world’s first – and only – autonomous database to help organize and secure our customers’ data.
 
Oracle Cloud Infrastructure offers higher performance, security, and cost savings. It is designed so businesses can move workloads easily from on-premises systems to the cloud, and between cloud and on-premises and other clouds. Oracle Cloud applications provide business leaders with modern applications that help them innovate, attain sustainable growth, and become more resilient. 
 
The work we do is not only transforming the world of b",https://cdn.rolodexcrm.com/img/org_2x7MLX8quU7NSiirWdUVX0RLCbz/company/b666d3dd-c139-4b62-a186-87b8174e799a-original-htGkP.png,,oracle,,,US,,,10001.0,,,b666d3dd-c139-4b62-a186-87b8174e799a
0b693db7-da34-467e-a892-efa53cbd2c1d,PEP Inc.,Rolodex,Giving CREATORS the wings they need to fly. Learn Something New. Start Something New.,getpepped.com,,,fba4070b-f220-4c72-9287-9a3477694842,,,,,,,,,,Mumbai,Maharashtra,IN,org_2x7MLX8quU7NSiirWdUVX0RLCbz,Giving CREATORS the wings they need to fly. Learn Something New. Start Something New.,https://cdn.rolodexcrm.com/img/org_2x7MLX8quU7NSiirWdUVX0RLCbz/company/fba4070b-f220-4c72-9287-9a3477694842-original-sHjKL.png,,pep-inc.,,,IN,,,2.0,,,fba4070b-f220-4c72-9287-9a3477694842
7d46c826-7dc6-45be-be72-ac2173940558,PharmEasy,Rolodex,"Launched in 2015, PharmEasy is a consumer healthcare “super app.”
Started with the sole purpose of making healthcare accessible and affordable to all, PharmEasy today is India's leading and most trusted online healthcare aggregator in the country.

We provide on-demand, home-delivered access to a wide range of prescription pharmaceuticals, diagnostic test services, OTC pharmaceuticals, other consumer healthcare products, thereby serving your healthcare needs. Thus, through our services, we ensure you get access to the best and most genuine health products, with the highest savings in the shortest time possible.

Today, we deliver medicines in 1000+ cities in India, covering 19000+ pin codes. We offer diagnostic test services across Mumbai, ",pharmeasy.in,,,57f8cbe6-0c41-4de7-bbc8-f784d363cf57,,,,,,,,,,Mumbai,Maharashtra,IN,org_2x7MLX8quU7NSiirWdUVX0RLCbz,"Launched in 2015, PharmEasy is a consumer healthcare “super app.”
Started with the sole purpose of making healthcare accessible and affordable to all, PharmEasy today is India's leading and most trusted online healthcare aggregator in the country.

We provide on-demand, home-delivered access to a wide range of prescription pharmaceuticals, diagnostic test services, OTC pharmaceuticals, other consumer healthcare products, thereby serving your healthcare needs. Thus, through our services, we ensure you get access to the best and most genuine health products, with the highest savings in the shortest time possible.

Today, we deliver medicines in 1000+ cities in India, covering 19000+ pin codes. We offer diagnostic test services across Mumbai, ",https://cdn.rolodexcrm.com/img/org_2x7MLX8quU7NSiirWdUVX0RLCbz/company/57f8cbe6-0c41-4de7-bbc8-f784d363cf57-original-ceuY2.png,,pharmeasy,,,IN,,,1001.0,,,57f8cbe6-0c41-4de7-bbc8-f784d363cf57
4533bb47-bcc5-46f1-b51b-6e68f08f9bea,Power Bridge,Rolodex,"Power Bridge is a leading provider of AV and IT infrastructure solutions, committed to delivering cutting-edge technology that meets customer needs. Our mission is to seamlessly connect innovative AV and IT products with real-world requirements while ensuring cost-effective, industry-aligned solutions.

Unlike value imitation, we focus on value innovation—constantly evolving to deliver impactful solutions. Headquartered in Bangalore, with regional offices in Hyderabad, Pune, and Chennai, we have the expertise and operational strength to execute projects across India. We Consult, Design, and Deliver AV & IT products, solutions, and services that empower businesses to grow exponentially with advanced technology.

Our core values—Trust & Respe",powerbridge.in,,,feb743e7-87d6-4932-a252-a2f2421be6a9,,,,,,,,,,Bengaluru,Karnataka,IN,org_2x7MLX8quU7NSiirWdUVX0RLCbz,"Power Bridge is a leading provider of AV and IT infrastructure solutions, committed to delivering cutting-edge technology that meets customer needs. Our mission is to seamlessly connect innovative AV and IT products with real-world requirements while ensuring cost-effective, industry-aligned solutions.

Unlike value imitation, we focus on value innovation—constantly evolving to deliver impactful solutions. Headquartered in Bangalore, with regional offices in Hyderabad, Pune, and Chennai, we have the expertise and operational strength to execute projects across India. We Consult, Design, and Deliver AV & IT products, solutions, and services that empower businesses to grow exponentially with advanced technology.

Our core values—Trust & Respe",https://cdn.rolodexcrm.com/img/org_2x7MLX8quU7NSiirWdUVX0RLCbz/company/feb743e7-87d6-4932-a252-a2f2421be6a9-original-S3s1O.png,,powerbridge-systems,,,IN,,,51.0,,,feb743e7-87d6-4932-a252-a2f2421be6a9
2c7e2430-a6d8-41d5-b77d-ccb99bca04d4,Stories by Joseph Radhik,Rolodex,"Stories has its roots in Joseph Radhik & Associates, a niche wedding photo and video team started by renowned wedding photographer Joseph Radhik in 2010. Today, Stories is a large team of talented photographers and cinematographers spread across India capturing moments of joy and love in weddings around the world.

Stories by Joseph Radhik is an international brand of wedding photography that has been recognized several times by media around the world: Vogue UK, Grazia, Elle, Asian Photography Journal, Brides UK for example. Entrepreneur magazine has written about us, and so has The Week .  

Visit stories.josephradhik.com for more information.",stories.josephradhik.com,,,dbf70ebd-fd9d-46ce-be37-8b59ffe99a83,,,,,,,,,,Mumbai,IN,,org_2x7MLX8quU7NSiirWdUVX0RLCbz,"Stories has its roots in Joseph Radhik & Associates, a niche wedding photo and video team started by renowned wedding photographer Joseph Radhik in 2010. Today, Stories is a large team of talented photographers and cinematographers spread across India capturing moments of joy and love in weddings around the world.

Stories by Joseph Radhik is an international brand of wedding photography that has been recognized several times by media around the world: Vogue UK, Grazia, Elle, Asian Photography Journal, Brides UK for example. Entrepreneur magazine has written about us, and so has The Week .  

Visit stories.josephradhik.com for more information.",https://cdn.rolodexcrm.com/img/org_2x7MLX8quU7NSiirWdUVX0RLCbz/company/dbf70ebd-fd9d-46ce-be37-8b59ffe99a83-original-DlnDq.png,,stories-by-joseph-radhik,,,IN,,,11.0,,,dbf70ebd-fd9d-46ce-be37-8b59ffe99a83
af529fa3-ace3-4087-aa46-69c2045ccead,Touchstone Partners,Rolodex,"Touchstone Partners (formerly Platinum Partners) is the preferred counsel in India for many Fortune 500 corporations, sovereign wealth funds, institutional investors and financial sponsors, and has advised them on some truly ground-breaking transactions. 

With an overwhelming majority of international institutions as our clients, we are rated by Chambers and Partners for cross-border transactional expertise. We take pride in being specialists in our core practices of Corporate / M&A, Private Equity / Venture Capital, Structured Finance, Fund Formation and Competition / Antitrust. We also handle high stakes contentious matters including regulatory and internal investigations with the support of empanelled counsels on our roster.

Our abilit",touchstonepartners.com,,,4ec15bda-6d90-4bf8-95c3-cf5857bc792f,,,,,,,,,,New Delhi,IN,,org_2x7MLX8quU7NSiirWdUVX0RLCbz,"Touchstone Partners (formerly Platinum Partners) is the preferred counsel in India for many Fortune 500 corporations, sovereign wealth funds, institutional investors and financial sponsors, and has advised them on some truly ground-breaking transactions. 

With an overwhelming majority of international institutions as our clients, we are rated by Chambers and Partners for cross-border transactional expertise. We take pride in being specialists in our core practices of Corporate / M&A, Private Equity / Venture Capital, Structured Finance, Fund Formation and Competition / Antitrust. We also handle high stakes contentious matters including regulatory and internal investigations with the support of empanelled counsels on our roster.

Our abilit",https://cdn.rolodexcrm.com/img/org_2x7MLX8quU7NSiirWdUVX0RLCbz/company/4ec15bda-6d90-4bf8-95c3-cf5857bc792f-original-A4EsE.png,,touchstonepartners,,,IN,,,11.0,,,4ec15bda-6d90-4bf8-95c3-cf5857bc792f
4b6d1274-7c63-496c-8cc5-ce299a9cc02f,Trustly Technology Solutions Pvt. Ltd.,Rolodex,"Trsutly.co.in  is a bridge between business needs and the world of affordable and high quality IT solutions More the company has emerged as a leading IT Infrastructure and Information Solution Provider. We are in a unique position in the market space. While staying agile and flexible, we have enough muscle power for heavy lifting.",trustly.co.in,,,2508de31-c999-457e-98c3-cf51660c263b,,,,,,,,,,Mumbai,Maharashtra,IN,org_2x7MLX8quU7NSiirWdUVX0RLCbz,"Trsutly.co.in  is a bridge between business needs and the world of affordable and high quality IT solutions More the company has emerged as a leading IT Infrastructure and Information Solution Provider. We are in a unique position in the market space. While staying agile and flexible, we have enough muscle power for heavy lifting.",https://cdn.rolodexcrm.com/img/org_2x7MLX8quU7NSiirWdUVX0RLCbz/company/2508de31-c999-457e-98c3-cf51660c263b-original-2LiwY.png,,trustly-technology-solutions-pvt-ltd-india,,,IN,,,51.0,,,2508de31-c999-457e-98c3-cf51660c263b
ff1e7fae-9a95-437e-9c5f-93b88289d040,Turquoise - The Bath Couture,Rolodex,"Welcome to Turquoise - The Bath Couture, where we specialize in bringing luxury bathrooms to life. Our collection of bath fittings and bathroom accessories are designed to elevate your daily routine with premium sanitaryware, designer taps, and shower systems that are both functional and stylish. Our innovative designs are perfect for those seeking high-end bathrooms that inspire. Explore our website to find bathroom inspiration and discover how we can transform your space with our bath couture collection.",turquoiseindia.in,,,49935798-e4b0-4a33-8db8-477feae4f6df,,,,,,,,,,Mumbai,Maharashtra,IN,org_2x7MLX8quU7NSiirWdUVX0RLCbz,"Welcome to Turquoise - The Bath Couture, where we specialize in bringing luxury bathrooms to life. Our collection of bath fittings and bathroom accessories are designed to elevate your daily routine with premium sanitaryware, designer taps, and shower systems that are both functional and stylish. Our innovative designs are perfect for those seeking high-end bathrooms that inspire. Explore our website to find bathroom inspiration and discover how we can transform your space with our bath couture collection.",,,turquoise-the-bath-couture,,,IN,,,11.0,,,49935798-e4b0-4a33-8db8-477feae4f6df
4a682c32-f06c-4349-996f-be424a8957b4,Uniserledlights,Rolodex,,uniserledlights.com,,,996b01d4-98ff-4f00-9fc3-07ff00286583,,,,,,,,,,,,,org_2x7MLX8quU7NSiirWdUVX0RLCbz,,,,,,,,,,,,,996b01d4-98ff-4f00-9fc3-07ff00286583
e78808da-4d3d-4591-8c42-3f2af514da83,Zoho Middle East & North Africa,Rolodex,"In the past 26+ years, Zoho Corporation has become one of the leading companies in software engineering behind three prominent brands: Zoho, ManageEngine, and Qntrl. Zoho offers world-class software to help you grow your business. With over 100+ million users worldwide, Zoho's 55+ products aid your sales and marketing, support and collaboration, and finance and recruitment needs.

For Zoho MEA Customer Support: 
WhatsApp: +971 58 271 8439
Call UAE: 800 ZOHO (9646)
Email: mea-support@zohocorp.com

أصبحت زوهو كوربوريشن في الخمس وعشرين سنة الماضية شركة رائدة في مجال هندسة البرمجيات، بثلاث علامات تجارية بارزة هي زوهو وماناج إنجن وكنترول.

وتقدم زوهو برامج ذات مستوى عالمي تساعدكم على تنمية أعمالكم. ومع أكثر من سبعين مليون مستخدم حول العالم، تساع",zohocorp.com,,,e5ce1e42-37ad-4bc4-8984-eaf128cff05f,,,,,,,,,,Dubai,Dubai,AE,org_2x7MLX8quU7NSiirWdUVX0RLCbz,"In the past 26+ years, Zoho Corporation has become one of the leading companies in software engineering behind three prominent brands: Zoho, ManageEngine, and Qntrl. Zoho offers world-class software to help you grow your business. With over 100+ million users worldwide, Zoho's 55+ products aid your sales and marketing, support and collaboration, and finance and recruitment needs.

For Zoho MEA Customer Support: 
WhatsApp: +971 58 271 8439
Call UAE: 800 ZOHO (9646)
Email: mea-support@zohocorp.com

أصبحت زوهو كوربوريشن في الخمس وعشرين سنة الماضية شركة رائدة في مجال هندسة البرمجيات، بثلاث علامات تجارية بارزة هي زوهو وماناج إنجن وكنترول.

وتقدم زوهو برامج ذات مستوى عالمي تساعدكم على تنمية أعمالكم. ومع أكثر من سبعين مليون مستخدم حول العالم، تساع",https://cdn.rolodexcrm.com/img/org_2x7MLX8quU7NSiirWdUVX0RLCbz/company/e5ce1e42-37ad-4bc4-8984-eaf128cff05f-original-IT5to.png,,zoho-mena,,,AE,,,10001.0,,,e5ce1e42-37ad-4bc4-8984-eaf128cff05f
